{"type":"FeatureCollection","features":[{"type":"Feature","properties":{},"geometry":{"type":"MultiPolygon","coordinates":[[[[172.75404583300008,-43.21172062499994,0.0],[172.75342310200006,-43.21351950799993,0.0],[172.75301267800012,-43.21366717199993,0.0],[172.7509438080001,-43.21786623599996,0.0],[172.75031178900008,-43.21991283999995,0.0],[172.7501104360001,-43.22056483999995,0.0],[172.74659835700004,-43.226857973999984,0.0],[172.74513692900007,-43.23055392599997,0.0],[172.7432785090001,-43.23525332699995,0.0],[172.7399749010001,-43.24049805399994,0.0],[172.73975764300008,-43.24319797099997,0.0],[172.7372775650001,-43.24724287099997,0.0],[172.73375427400003,-43.25458870799997,0.0],[172.73373808500003,-43.25462679299994,0.0],[172.73188975100004,-43.25848195599997,0.0],[172.73126436500002,-43.261180889999935,0.0],[172.7298116190001,-43.26462942599994,0.0],[172.7287593630001,-43.27047778499997,0.0],[172.72838373184652,-43.27126551190217,0.0],[172.4804892,-43.133123,0.0],[172.76008157873048,-43.20335020864908,0.0],[172.75404583300008,-43.21172062499994,0.0]]],[[[172.72791667900003,-43.27224495699994,0.0],[172.72668632400007,-43.274824903999956,0.0],[172.7265380091797,-43.27616372243411,0.0],[172.7265207,-43.2762,0.0],[172.72645351109188,-43.276805944412274,0.0],[172.72522762100004,-43.27917354899995,0.0],[172.72379773500006,-43.279912612999965,0.0],[172.72297011000012,-43.28246696399998,0.0],[172.72255208800004,-43.28382565299995,0.0],[172.72139112600007,-43.28773497299994,0.0],[172.71961630300007,-43.293710346999944,0.0],[172.71919463500012,-43.296409696999945,0.0],[172.7164943350001,-43.303306996999936,0.0],[172.71585697400008,-43.30780598999996,0.0],[172.71565982900006,-43.30844352999998,0.0],[172.7146053350001,-43.31185339599995,0.0],[172.7137613000001,-43.31620339899996,0.0],[172.7136742167317,-43.31717126092077,0.0],[172.7135953,-43.317578,0.0],[172.71327502109045,-43.32113739593683,0.0],[172.71229029100004,-43.32354909999998,0.0],[172.7117494790001,-43.32605730199998,0.0],[172.71144937700012,-43.32744903799994,0.0],[172.711358006245,-43.328477363023104,0.0],[172.7112833,-43.328824,0.0],[172.7109513,-43.332562,0.0],[172.7109033,-43.333106,0.0],[172.71052586945157,-43.33735325857879,0.0],[172.7100889720001,-43.338530213999945,0.0],[172.7097483440001,-43.339447795999945,0.0],[172.70890303400006,-43.34469782899998,0.0],[172.70890925777508,-43.3450041284828,0.0],[172.7087372,-43.346073,0.0],[172.7089052,-43.354323,0.0],[172.7076132,-43.366471,0.0],[172.7081842,-43.36833,0.0],[172.7086272,-43.369772,0.0],[172.7085942,-43.376581,0.0],[172.7085792,-43.379827,0.0],[172.7093893,-43.382529,0.0],[172.70972067294787,-43.38687347823652,0.0],[172.7091142170001,-43.38760206499995,0.0],[172.70581568600005,-43.38879528599995,0.0],[172.70652693699222,-43.38985286369979,0.0],[172.7056502,-43.39017,0.0],[172.7066622,-43.391675,0.0],[172.7066732,-43.391671,0.0],[172.7097543,-43.39258,0.0],[172.7105753,-43.393333,0.0],[172.7111883,-43.394235,0.0],[172.7112353,-43.394981,0.0],[172.7118593,-43.404885,0.0],[172.7119543,-43.406388,0.0],[172.7127643,-43.409392,0.0],[172.7127393,-43.415242,0.0],[172.7133273,-43.421545,0.0],[172.71413234029137,-43.423322797310114,0.0],[172.71409368800005,-43.423618472999976,0.0],[172.7136802340001,-43.42436906399996,0.0],[172.71376775464185,-43.42528423083087,0.0],[172.7135143,-43.425744,0.0],[172.7141033,-43.431898,0.0],[172.7142793,-43.438347,0.0],[172.7150864,-43.442251,0.0],[172.7150544,-43.449392,0.0],[172.7150504,-43.450352,0.0],[172.7156054,-43.452577,0.0],[172.7160604,-43.454405,0.0],[172.7162594,-43.456362,0.0],[172.7164564,-43.458303,0.0],[172.7166916,-43.458864,0.0],[172.7191046,-43.46461,0.0],[172.7196976,-43.470012,0.0],[172.7213157,-43.477068,0.0],[172.7225427,-43.479771,0.0],[172.7241607,-43.486076,0.0],[172.7284488,-43.495537,0.0],[172.7290518,-43.499588,0.0],[172.7327169,-43.510546,0.0],[172.7333159,-43.514129,0.0],[172.72485340339622,-43.52405317750745,0.0],[172.72498335500006,-43.52340535099995,0.0],[172.72291687400002,-43.524151883999934,0.0],[172.72228811200011,-43.526400603999946,0.0],[172.7224517055139,-43.52660028124399,0.0],[172.7223397,-43.527001,0.0],[172.6732556,-43.584558,0.0],[172.1768627,-43.6697502,0.0],[172.0958783,-43.6065362,0.0],[171.9167319,-43.4667064,0.0],[172.1711941,-43.227433,0.0],[172.3292478,-43.172602,0.0],[172.4804892,-43.133123,0.0],[172.72820677967295,-43.271636593976204,0.0],[172.72791667900003,-43.27224495699994,0.0]]]]}}]}