{"type":"FeatureCollection","features":[{"type":"Feature","properties":{},"geometry":{"type":"MultiPolygon","coordinates":[[[[173.3605373470001,-42.804533720999984,0.0],[173.36033826000005,-42.805434521999985,0.0],[173.35952758000008,-42.80648571399996,0.0],[173.35952396900007,-42.80650643299998,0.0],[173.35932923200005,-42.80753497999996,0.0],[173.35770466100007,-42.80889023799995,0.0],[173.3569909910001,-42.80919875699993,0.0],[173.35526168,-42.80994630599997,0.0],[173.35494609300008,-42.81100690899996,0.0],[173.3548595310001,-42.81129781499993,0.0],[173.35420094200003,-42.81196913799994,0.0],[173.35161321900011,-42.814606724999976,0.0],[173.35100762800005,-42.81565722499994,0.0],[173.35081165200006,-42.817156643999965,0.0],[173.3493850850001,-42.817908028999966,0.0],[173.34756154000002,-42.81986230299998,0.0],[173.34451052200006,-42.82212168399997,0.0],[173.34369853400005,-42.823024206999946,0.0],[173.34227384000008,-42.82347846999994,0.0],[173.34085265700003,-42.82483287799994,0.0],[173.3400449720001,-42.82633400599997,0.0],[173.3395278270001,-42.82658754899995,0.0],[173.33943462800005,-42.82723589899996,0.0],[173.33760181200012,-42.82753825299994,0.0],[173.33617569000012,-42.82827086399993,0.0],[173.3349587230001,-42.828896002999954,0.0],[173.33272014400006,-42.830698189999964,0.0],[173.33099258800007,-42.83343658499996,0.0],[173.32841501300004,-42.83752186799995,0.0],[173.32826533200011,-42.83775908499996,0.0],[173.32561891000012,-42.83881509899993,0.0],[173.3211506870001,-42.843476763999945,0.0],[173.31648367600008,-42.84963761199998,0.0],[173.315737301,-42.85108788499997,0.0],[173.31486225600008,-42.852788078999936,0.0],[173.3135985670001,-42.854581887999984,0.0],[173.31242961400005,-42.85624217399993,0.0],[173.31121482800006,-42.858797426999956,0.0],[173.31081582000002,-42.861048927999946,0.0],[173.30980142700002,-42.86255030399997,0.0],[173.30900535700005,-42.86749895699995,0.0],[173.30901265300008,-42.86900215399993,0.0],[173.31167375200005,-42.87139418199996,0.0],[173.31188297800009,-42.87214530999995,0.0],[173.3110690950001,-42.87289462999996,0.0],[173.31066858400004,-42.87484451299997,0.0],[173.3108741750001,-42.87559565299995,0.0],[173.3132463881364,-42.87785464364122,0.0],[173.315253,-42.879766,0.0],[173.31542975275468,-42.87993378321191,0.0],[173.3155875430001,-42.88008402799994,0.0],[173.31566404216878,-42.88009711071875,0.0],[173.315733,-42.880109,0.0],[173.31611264762947,-42.880173826974996,0.0],[173.31675181800006,-42.88028313099994,0.0],[173.31887251511858,-42.880645755942766,0.0],[173.31906053497582,-42.88067792044844,0.0],[173.31928686958906,-42.88089761587079,0.0],[173.319675,-42.881275,0.0],[173.318873,-42.884878,0.0],[173.318264,-42.885478,0.0],[173.31541,-42.886984,0.0],[173.31496032404795,-42.887032797253035,0.0],[173.3146822010001,-42.88706275499993,0.0],[173.3111251360001,-42.88744583299996,0.0],[173.31048534242373,-42.88777271592109,0.0],[173.308478,-42.888798,0.0],[173.3042977665015,-42.892028647287205,0.0],[173.30400140400002,-42.89225767199997,0.0],[173.30400134654607,-42.89225773217569,0.0],[173.304001,-42.892258,0.0],[173.30326277606605,-42.893031291082316,0.0],[173.3015588190001,-42.89481596999997,0.0],[173.30156069100008,-42.89521479599995,0.0],[173.3015677077073,-42.89670898935367,0.0],[173.301572,-42.897665,0.0],[173.30122498745132,-42.898050000392246,0.0],[173.3007586330081,-42.898567147179044,0.0],[173.300567,-42.898644,0.0],[173.296273,-42.900374,0.0],[173.295255,-42.901128,0.0],[173.29525471579248,-42.90112842053611,0.0],[173.2952546260001,-42.90112848699994,0.0],[173.29508261742941,-42.901383071008084,0.0],[173.293631,-42.903531,0.0],[173.292409,-42.904583,0.0],[173.290378,-42.907734,0.0],[173.289439,-42.908477,0.0],[173.287523,-42.908641,0.0],[173.28503910651858,-42.91047508669296,0.0],[173.28487443200004,-42.910596649999945,0.0],[173.28263244300013,-42.911200571999984,0.0],[173.28124851557342,-42.91128121709401,0.0],[173.279976,-42.911355,0.0],[173.27887787061024,-42.91103610150435,0.0],[173.27793414400003,-42.91076163599996,0.0],[173.27424815900008,-42.90791662899994,0.0],[173.2738385990001,-42.908066074999965,0.0],[173.27384495100011,-42.90956935699995,0.0],[173.27446300100007,-42.91091820499997,0.0],[173.2762634648876,-42.91176320601081,0.0],[173.277326,-42.912262,0.0],[173.27904533486458,-42.91225779036584,0.0],[173.28018521481943,-42.91225512233745,0.0],[173.28202688761382,-42.91330393599723,0.0],[173.2791741650001,-42.91570958099993,0.0],[173.27815801300005,-42.917210756999964,0.0],[173.2773455350001,-42.917662716999985,0.0],[173.27497693353348,-42.920130663452404,0.0],[173.273886,-42.921267,0.0],[173.271643,-42.923221,0.0],[173.2714449795926,-42.9232861070369,0.0],[173.2698086480001,-42.92382373199996,0.0],[173.2687889890001,-42.92457773199993,0.0],[173.26879094600008,-42.925027805999946,0.0],[173.26879280100002,-42.92547787999996,0.0],[173.2663224217663,-42.92859034255359,0.0],[173.265336,-42.929833,0.0],[173.26248,-42.931937,0.0],[173.26174213313843,-42.93302813481128,0.0],[173.26085472800003,-42.93433961599993,0.0],[173.25929759013488,-42.93561547961691,0.0],[173.259021,-42.935842,0.0],[173.25902067780072,-42.93584237177601,0.0],[173.25902065800005,-42.93584238799997,0.0],[173.25576467400003,-42.939598613999976,0.0],[173.25422951818186,-42.94186563598192,0.0],[173.253121,-42.943502,0.0],[173.250266,-42.944858,0.0],[173.24959347881128,-42.94538829331829,0.0],[173.24740965600006,-42.94711009699995,0.0],[173.24695245158793,-42.94765827163926,0.0],[173.245781,-42.949062,0.0],[173.245581,-42.950264,0.0],[173.24558129082922,-42.95026421170656,0.0],[173.24558124600003,-42.95026448099998,0.0],[173.24573576591916,-42.95037666048527,0.0],[173.245989,-42.950561,0.0],[173.2459902459306,-42.950811432055026,0.0],[173.24599159100012,-42.95116384199997,0.0],[173.2456100012545,-42.95138914660834,0.0],[173.244974,-42.951764,0.0],[173.24471817437322,-42.952237308837766,0.0],[173.24456668800008,-42.95251694399997,0.0],[173.2432073677032,-42.953458042705265,0.0],[173.241098,-42.954918,0.0],[173.239468,-42.95552,0.0],[173.23314886377972,-42.95901238053764,0.0],[173.23211971400008,-42.95958111699997,0.0],[173.22517880100008,-42.96259191499996,0.0],[173.2231639273593,-42.96415285342147,0.0],[173.221102,-42.96575,0.0],[173.212117,-42.969209,0.0],[173.207416,-42.970266,0.0],[173.20472825668818,-42.971612504633285,0.0],[173.20231230900004,-42.97282257299997,0.0],[173.19802452200008,-42.97447695499994,0.0],[173.19679810700006,-42.97552768299994,0.0],[173.1929241647226,-42.97610080564717,0.0],[173.191692,-42.976283,0.0],[173.19096847944758,-42.97675708497318,0.0],[173.1898530750001,-42.977487724999946,0.0],[173.18922017954282,-42.977603656061554,0.0],[173.188217,-42.977787,0.0],[173.18597000622555,-42.97869099749537,0.0],[173.18595355010657,-42.978691022990766,0.0],[173.183108,-42.978695,0.0],[173.18012499418182,-42.9793961026361,0.0],[173.17861512700006,-42.979750782999986,0.0],[173.17660787220285,-42.979844825405735,0.0],[173.175342,-42.979904,0.0],[173.170228,-42.978408,0.0],[173.167982,-42.978411,0.0],[173.166755,-42.97916,0.0],[173.16675492146942,-42.97916012695776,0.0],[173.16675474600004,-42.97916023399995,0.0],[173.16629891772874,-42.97989733300521,0.0],[173.16573502859134,-42.98080895377734,0.0],[173.1641049317793,-42.98156438673151,0.0],[173.162032,-42.982525,0.0],[173.16175389903844,-42.982653909782734,0.0],[173.1602220520001,-42.98336374499996,0.0],[173.15511075300003,-42.985467738999944,0.0],[173.15184185600003,-42.98592201699995,0.0],[173.15101652293436,-42.98615027508943,0.0],[173.148573,-42.986826,0.0],[173.148401,-42.986844,0.0],[173.14676689639543,-42.98701585110371,0.0],[173.14571030600007,-42.987126701999955,0.0],[173.14141764500005,-42.989382184999954,0.0],[173.1395818960001,-42.99103158599996,0.0],[173.13590271500004,-42.993731681999975,0.0],[173.13571561000003,-42.99397589299997,0.0],[173.1340657940001,-42.99613267799998,0.0],[173.13341263000672,-42.99654438110687,0.0],[173.132635,-42.997034,0.0],[173.1318251461505,-42.99784094767541,0.0],[173.13179898200008,-42.99786699799995,0.0],[173.13174946156633,-42.99791641254185,0.0],[173.131012,-42.998652,0.0],[173.129775,-42.999886,0.0],[173.1282188147346,-43.00186294448861,0.0],[173.1275299980001,-43.00273782399995,0.0],[173.115145782,-43.012821981999934,0.0],[173.10924609347498,-43.01797725812868,0.0],[173.107627,-43.019392,0.0],[173.102728,-43.024797,0.0],[173.09982899882402,-43.02741660380429,0.0],[173.0955788660001,-43.03125671599997,0.0],[173.09374191900008,-43.033810012999936,0.0],[173.09203773700006,-43.03575904199994,0.0],[173.0908825201,-43.037080068358115,0.0],[173.088228,-43.040115,0.0],[173.086186,-43.042817,0.0],[173.082916,-43.045974,0.0],[173.0829159189405,-43.045974179446226,0.0],[173.0829157920001,-43.045974301999934,0.0],[173.08283325015697,-43.04615718822746,0.0],[173.082509,-43.046875,0.0],[173.083941,-43.048521,0.0],[173.0836835437351,-43.049090313607884,0.0],[173.08353381693132,-43.04942115390048,0.0],[173.08254347886154,-43.05025370225686,0.0],[173.08210277463544,-43.05062411029415,0.0],[173.08197964111608,-43.05068437224804,0.0],[173.07903602900012,-43.05212477899994,0.0],[173.07616964500005,-43.05182952699994,0.0],[173.0739214869172,-43.051830844988004,0.0],[173.073509,-43.051831,0.0],[173.07142064691337,-43.051258201871775,0.0],[173.06859762500005,-43.05048365899995,0.0],[173.06615357795212,-43.05055256413634,0.0],[173.063072,-43.050639,0.0],[173.06055394490048,-43.049929555475345,0.0],[173.06041048800012,-43.04988911299995,0.0],[173.05897694600003,-43.04853956299996,0.0],[173.0575508976987,-43.04784494932627,0.0],[173.056521,-43.047343,0.0],[173.05070265047476,-43.04722848110749,0.0],[173.04915355600008,-43.047197867999955,0.0],[173.0454721000001,-43.04795079599995,0.0],[173.0407420260001,-43.049424957999975,0.0],[173.03872032000004,-43.05005471199996,0.0],[173.03815956510365,-43.05026035309935,0.0],[173.037249,-43.050594,0.0],[173.031353,-43.052757,0.0],[173.0266349037639,-43.05521959607978,0.0],[173.02214874600008,-43.05756092299998,0.0],[173.01982194078494,-43.05834834757432,0.0],[173.011506,-43.061162,0.0],[173.008437,-43.063264,0.0],[173.0059184573585,-43.06459947688508,0.0],[173.004751821,-43.06521781499998,0.0],[173.00147610800002,-43.067616613999974,0.0],[173.0007570837337,-43.068011868670894,0.0],[172.99973,-43.068576,0.0],[172.99831862833665,-43.06935230056826,0.0],[172.9982014750001,-43.06941669999998,0.0],[172.9982014515355,-43.06941675164071,0.0],[172.998201,-43.069417,0.0],[172.997792,-43.070317,0.0],[172.99730484742886,-43.07080921776608,0.0],[172.99615678100008,-43.07196850099996,0.0],[172.9924685670969,-43.073415431665055,0.0],[172.990422,-43.074218,0.0],[172.985715,-43.075122,0.0],[172.98314111236897,-43.07603285361509,0.0],[172.97977774600008,-43.07722272199993,0.0],[172.97363524500008,-43.07797278299995,0.0],[172.97220058800008,-43.07871952399995,0.0],[172.9699260522134,-43.079275588029944,0.0],[172.96913,-43.07947,0.0],[172.966876,-43.081121,0.0],[172.959708,-43.084269,0.0],[172.953361,-43.085621,0.0],[172.95172437983805,-43.08574292174739,0.0],[172.9453744440001,-43.08621567999995,0.0],[172.93861644300011,-43.08711661799998,0.0],[172.9374088671125,-43.08772225710605,0.0],[172.934689,-43.089086,0.0],[172.93307902238243,-43.08989371926729,0.0],[172.93144584200002,-43.09071271399995,0.0],[172.93047205863735,-43.09142513768607,0.0],[172.928987,-43.092511,0.0],[172.92694299603556,-43.09320077461112,0.0],[172.92632327400008,-43.093409743999985,0.0],[172.92181855900003,-43.093856639999956,0.0],[172.9202906622296,-43.09415550347078,0.0],[172.918747,-43.094457,0.0],[172.91590977360687,-43.09589908621933,0.0],[172.9140329930001,-43.09685269299996,0.0],[172.9136633102128,-43.09696130755484,0.0],[172.913009,-43.097153,0.0],[172.907273,-43.09745,0.0],[172.90675379334903,-43.09761256888863,0.0],[172.90297111900009,-43.09879661999997,0.0],[172.89600659300004,-43.098641681999936,0.0],[172.89516884608454,-43.09845238381919,0.0],[172.893346,-43.09804,0.0],[172.889464,-43.098275,0.0],[172.888432,-43.098337,0.0],[172.886176,-43.099086,0.0],[172.884739,-43.100435,0.0],[172.8842122114201,-43.100819929990074,0.0],[172.88146029400002,-43.10283054399997,0.0],[172.8789768508035,-43.103954356858985,0.0],[172.877154,-43.104779,0.0],[172.87648473866298,-43.10526707107262,0.0],[172.87551408500008,-43.10597450199998,0.0],[172.87547730809013,-43.10601169190986,0.0],[172.875444,-43.106045,0.0],[172.872846,-43.108676,0.0],[172.862239,-43.116914,0.0],[172.860532,-43.119013,0.0],[172.85924725293026,-43.12020258062013,0.0],[172.8582097850001,-43.12116281599998,0.0],[172.85764753687195,-43.12168311121484,0.0],[172.85745320286247,-43.12186281241251,0.0],[172.85694946693633,-43.12198386432366,0.0],[172.856224,-43.122158,0.0],[172.85579348272626,-43.12235464309093,0.0],[172.85458154900005,-43.12290773899997,0.0],[172.8535535850001,-43.125156741999945,0.0],[172.85109236100004,-43.12650366499997,0.0],[172.84760181900003,-43.12905089399993,0.0],[172.84534117400005,-43.13114962299994,0.0],[172.84431580700004,-43.131746755999984,0.0],[172.8402178030001,-43.13144391599997,0.0],[172.83981885577606,-43.1315903854122,0.0],[172.8394,-43.131744,0.0],[172.83939969782742,-43.131744274986254,0.0],[172.83939967600008,-43.13174428299993,0.0],[172.83775484500006,-43.133240608999984,0.0],[172.83713541232115,-43.13354097908741,0.0],[172.836524,-43.133837,0.0],[172.83496705187372,-43.13398026579346,0.0],[172.83488293100004,-43.133987984999976,0.0],[172.83486098950047,-43.133983932939856,0.0],[172.832426,-43.133534,0.0],[172.83217439459975,-43.133518763027006,0.0],[172.83178206800005,-43.133494602999974,0.0],[172.8299682910001,-43.13338199499998,0.0],[172.82996821509997,-43.13338201339928,0.0],[172.829968,-43.133382,0.0],[172.828123,-43.133829,0.0],[172.82753653191992,-43.13379283016246,0.0],[172.82630723800003,-43.13371663099997,0.0],[172.82577374000005,-43.13368374899994,0.0],[172.82567819400003,-43.13367785999998,0.0],[172.82566324800007,-43.13367693899994,0.0],[172.82566308735528,-43.133677005823685,0.0],[172.825663,-43.133677,0.0],[172.82564698484134,-43.133683704019894,0.0],[172.8256196970001,-43.133695054999976,0.0],[172.82512959202435,-43.133898925043106,0.0],[172.82423,-43.134273,0.0],[172.822997,-43.134271,0.0],[172.82028749922932,-43.13301209637463,0.0],[172.81910980200007,-43.132464769999956,0.0],[172.8178918870001,-43.13246277099995,0.0],[172.817579527059,-43.13246225601681,0.0],[172.817472,-43.132462,0.0],[172.81747207055437,-43.13246207885488,0.0],[172.81747155200003,-43.132462077999946,0.0],[172.81750805060287,-43.13250229185026,0.0],[172.817523,-43.132519,0.0],[172.81828970480544,-43.13336367478567,0.0],[172.81356177100008,-43.13800957099994,0.0],[172.80821798800002,-43.14280286699994,0.0],[172.80729197750097,-43.143772636442314,0.0],[172.804927,-43.146249,0.0],[172.802872,-43.147893,0.0],[172.80206189211418,-43.1482994119415,0.0],[172.7995906110001,-43.14953881799994,0.0],[172.79909529500003,-43.150137610999934,0.0],[172.79904399768384,-43.150181180874704,0.0],[172.798782,-43.150403,0.0],[172.79809093515203,-43.15082399352807,0.0],[172.7977378390001,-43.15103879099996,0.0],[172.79775958928934,-43.15108672369221,0.0],[172.797928,-43.151459,0.0],[172.79808209856427,-43.15179745392425,0.0],[172.79814661700004,-43.15193963499996,0.0],[172.79814694305654,-43.15193987493237,0.0],[172.798147,-43.15194,0.0],[172.79875981794814,-43.152390866059726,0.0],[172.7948507960001,-43.15688452899997,0.0],[172.78806340900007,-43.16392456899996,0.0],[172.78806339683408,-43.1639245884337,0.0],[172.788063,-43.163925,0.0],[172.784968,-43.168869,0.0],[172.780644,-43.174113,0.0],[172.777759,-43.178757,0.0],[172.77466440684086,-43.1813663064857,0.0],[172.77385010900002,-43.18205285799996,0.0],[172.77384750645996,-43.18205624255745,0.0],[172.769935,-43.187144,0.0],[172.76951249181093,-43.18856886309033,0.0],[172.76931196700002,-43.18924481499994,0.0],[172.7680748460001,-43.19104254499996,0.0],[172.7678892842118,-43.19171354113912,0.0],[172.767659,-43.192545,0.0],[172.768067,-43.192996,0.0],[172.7665,-43.194941,0.0],[172.76486060951316,-43.196975921347345,0.0],[172.76312215300004,-43.19913351799994,0.0],[172.75404583300008,-43.21172062499994,0.0],[172.75342310200006,-43.21351950799993,0.0],[172.75305801168827,-43.21365086166299,0.0],[172.753013,-43.213667,0.0],[172.75301296637147,-43.21366706824852,0.0],[172.75301267800012,-43.21366717199993,0.0],[172.7509438080001,-43.21786623599996,0.0],[172.75031178900008,-43.21991283999995,0.0],[172.7502306968082,-43.22017542416368,0.0],[172.75011,-43.220565,0.0],[172.746598,-43.226858,0.0],[172.74546471192835,-43.22972496284247,0.0],[172.74513692900007,-43.23055392599997,0.0],[172.7432785090001,-43.23525332699995,0.0],[172.7399749010001,-43.24049805399994,0.0],[172.73975764300008,-43.24319797099997,0.0],[172.7372775650001,-43.24724287099997,0.0],[172.73450228300447,-43.25302915693792,0.0],[172.733754,-43.254589,0.0],[172.7337383130125,-43.25462625659529,0.0],[172.73373808500003,-43.25462679299994,0.0],[172.73188975100004,-43.25848195599997,0.0],[172.73161898856978,-43.25965046621435,0.0],[172.731264,-43.261181,0.0],[172.73037454650674,-43.26329314576087,0.0],[172.7298116190001,-43.26462942599994,0.0],[172.7292109369161,-43.26796797144141,0.0],[172.724411,-43.265795,0.0],[172.473433,-43.127756,0.0],[172.448063,-43.122301,0.0],[172.425412,-43.109796,0.0],[172.370436,-43.083641,0.0],[172.301437,-43.043389,0.0],[172.691522,-42.65004,0.0],[172.801766,-42.690784,0.0],[172.826237,-42.702718,0.0],[172.836735,-42.706393,0.0],[172.844687,-42.705666,0.0],[172.861281,-42.702179,0.0],[172.868381,-42.703778,0.0],[172.883958,-42.700908,0.0],[172.911672,-42.691607,0.0],[172.934128,-42.680546,0.0],[172.942638,-42.67507,0.0],[172.950043,-42.672692,0.0],[172.953171,-42.66894,0.0],[172.963542,-42.665967,0.0],[172.966426,-42.663046,0.0],[172.979048,-42.657189,0.0],[172.980937,-42.65355,0.0],[172.988824,-42.648788,0.0],[172.996366,-42.651375,0.0],[173.009382,-42.648955,0.0],[173.02099,-42.647128,0.0],[173.031866,-42.654065,0.0],[173.028918,-42.661378,0.0],[173.034051,-42.6765,0.0],[173.05259,-42.686522,0.0],[173.190718,-42.730289,0.0],[173.36072883407746,-42.804427274477696,0.0],[173.3605373470001,-42.804533720999984,0.0]]],[[[173.07557088734208,-43.06323001692616,0.0],[173.07476375355307,-43.06335128385641,0.0],[173.07454611200012,-43.06338390999997,0.0],[173.07423317132984,-43.06315311176487,0.0],[173.07372905369763,-43.062781039632405,0.0],[173.07372807600007,-43.06188118299997,0.0],[173.07413671400002,-43.061732365999944,0.0],[173.07480409051917,-43.062220909989605,0.0],[173.075365,-43.062632,0.0],[173.07552777524612,-43.063104522316436,0.0],[173.07557088734208,-43.06323001692616,0.0]]]]}}]}