{"type":"FeatureCollection","features":[{"type":"Feature","properties":{},"geometry":{"type":"MultiPolygon","coordinates":[[[[172.7273857,-43.270478,0.0],[172.7277937,-43.268214,0.0],[172.7230377,-43.265795,0.0],[172.4720597,-43.127756,0.0],[172.4466897,-43.122301,0.0],[172.4240387,-43.109796,0.0],[172.3690627,-43.083641,0.0],[172.3000637,-43.043389,0.0],[171.9279237,-43.279365,0.0],[171.9763837,-43.320297,0.0],[172.1150867,-43.420126,0.0],[172.2973177,-43.487391,0.0],[172.4415047,-43.524612,0.0],[172.5202057,-43.544828,0.0],[172.5723107,-43.480535,0.0],[172.6451387,-43.407831,0.0],[172.7115327,-43.413653,0.0],[172.7115567,-43.408017,0.0],[172.7107467,-43.405013,0.0],[172.7106517,-43.40351,0.0],[172.7100277,-43.393606,0.0],[172.7099807,-43.39286,0.0],[172.7093677,-43.391958,0.0],[172.7085467,-43.391205,0.0],[172.7054657,-43.390296,0.0],[172.7054547,-43.3903,0.0],[172.7044427,-43.388795,0.0],[172.7077407,-43.387602,0.0],[172.7083617,-43.386856,0.0],[172.7085707,-43.386254,0.0],[172.7081817,-43.381154,0.0],[172.7073717,-43.378452,0.0],[172.7073867,-43.375206,0.0],[172.7074197,-43.368397,0.0],[172.7069767,-43.366955,0.0],[172.7064057,-43.365096,0.0],[172.7076977,-43.352948,0.0],[172.7075297,-43.344698,0.0],[172.7083747,-43.339448,0.0],[172.7087157,-43.33853,0.0],[172.7092097,-43.3372,0.0],[172.7096957,-43.331731,0.0],[172.7097437,-43.331187,0.0],[172.7100757,-43.327449,0.0],[172.7103757,-43.326057,0.0],[172.7109167,-43.323549,0.0],[172.7119557,-43.321004,0.0],[172.7123877,-43.316203,0.0],[172.7132317,-43.311853,0.0],[172.7142867,-43.308444,0.0],[172.7144837,-43.307806,0.0],[172.7151207,-43.303307,0.0],[172.7178217,-43.29641,0.0],[172.7182427,-43.29371,0.0],[172.7200177,-43.287735,0.0],[172.7211787,-43.283826,0.0],[172.7215967,-43.282467,0.0],[172.7224247,-43.279913,0.0],[172.7238547,-43.279174,0.0],[172.7250967,-43.276773,0.0],[172.7253127,-43.274825,0.0],[172.7265437,-43.272245,0.0],[172.7273857,-43.270478,0.0]]]]}}]}