{"type":"FeatureCollection","features":[{"type":"Feature","properties":{},"geometry":{"type":"MultiPolygon","coordinates":[[[[174.02070389200003,-39.05938588299995,0.0],[174.0203272120001,-39.05983990699997,0.0],[174.0195388937733,-39.05954319932159,0.0],[174.01997831571163,-39.05901941552724,0.0],[174.02070389200003,-39.05938588299995,0.0]]],[[[174.018017836,-39.06893596899994,0.0],[174.0181547510001,-39.068715947999976,0.0],[174.0190827350001,-39.06645511099998,0.0],[174.0196327100001,-39.06464811799998,0.0],[174.0197841480001,-39.06209720999993,0.0],[174.02034576100004,-39.061042372999964,0.0],[174.02206026900012,-39.05982364899995,0.0],[174.02242996500001,-39.05891931399998,0.0],[174.02434313300012,-39.05800044099993,0.0],[174.02490913500003,-39.05724293399993,0.0],[174.02700940700004,-39.05617363099998,0.0],[174.02910371200005,-39.05450073099996,0.0],[174.03102720000004,-39.05448256999995,0.0],[174.03437898900006,-39.05313827499998,0.0],[174.0366671390001,-39.05449581399995,0.0],[174.03895730600004,-39.05568571999993,0.0],[174.03903250400003,-39.05591388199997,0.0],[174.0366890360001,-39.05908207699997,0.0],[174.0384337800001,-39.059813228999985,0.0],[174.04210211800012,-39.06037744899993,0.0],[174.04517290000013,-39.05960031899997,0.0],[174.04709644600007,-39.05942873599997,0.0],[174.04976816700002,-39.057903075999945,0.0],[174.05094861600003,-39.05789175299998,0.0],[174.05207879300008,-39.057880900999976,0.0],[174.05341747300008,-39.05726439499995,0.0],[174.05688342400003,-39.05723096199995,0.0],[174.0620438960001,-39.05477999599998,0.0],[174.06358607700008,-39.05476053499996,0.0],[174.06494753200002,-39.05549947099996,0.0],[174.06688387600002,-39.055733035999936,0.0],[174.06726289800008,-39.055778757999974,0.0],[174.0696210200001,-39.05565687999996,0.0],[174.07091920300002,-39.05558983099996,0.0],[174.07140983600004,-39.05546390599994,0.0],[174.0728133240001,-39.05510367699998,0.0],[174.07456463300002,-39.054653223999935,0.0],[174.076132496,-39.05402257199995,0.0],[174.0768605930001,-39.05372969299998,0.0],[174.07799147800006,-39.05221400299996,0.0],[174.08315582800003,-39.05006387499998,0.0],[174.0854710100001,-39.05033829799993,0.0],[174.08741129600003,-39.05031901099994,0.0],[174.08778145600002,-39.050315327999954,0.0],[174.08893395000007,-39.050002046999964,0.0],[174.09083525200003,-39.04863174099995,0.0],[174.0946655450001,-39.04724214299995,0.0],[174.09635843600006,-39.04566018699995,0.0],[174.09694115700006,-39.04511569199997,0.0],[174.0984462880001,-39.04300150299997,0.0],[174.10129176200007,-39.04041878299995,0.0],[174.10242438900002,-39.039055993999966,0.0],[174.10490018500002,-39.037531016999935,0.0],[174.10740300100008,-39.037505747999944,0.0],[174.10681304900004,-39.03675944699995,0.0],[174.1069970740001,-39.03615850399996,0.0],[174.11062504000006,-39.03446858799998,0.0],[174.11886813400008,-39.03213238999996,0.0],[174.1261047700001,-39.02754908899993,0.0],[174.12932299600004,-39.024362709999934,0.0],[174.13711265500012,-39.018426147999946,0.0],[174.14386050500002,-39.01895504399994,0.0],[174.14508736000005,-39.01871075099996,0.0],[174.14942534300008,-39.01784726499994,0.0],[174.15422986800002,-39.01625989499996,0.0],[174.15459270100007,-39.01613981599996,0.0],[174.1576498610001,-39.01475616699997,0.0],[174.1604972550001,-39.01247379299997,0.0],[174.1622160920001,-39.01170324799995,0.0],[174.16626316000009,-39.009245619999945,0.0],[174.17002255700004,-39.00696245199998,0.0],[174.17617105400006,-39.00007932899996,0.0],[174.17617208900003,-39.000079967999966,0.0],[174.17625075500007,-38.99999009399994,0.0],[174.17887776100008,-38.996209473999954,0.0],[174.1793547200001,-38.996033885999964,0.0],[174.18098260800002,-38.995434571999965,0.0],[174.1843029140001,-38.99383028999995,0.0],[174.18479680300004,-38.993591641999956,0.0],[174.18634042300005,-38.993723614999965,0.0],[174.18695518200002,-38.994667463999974,0.0],[174.18905301300003,-38.99372040299994,0.0],[174.19457133100002,-38.99122887499993,0.0],[174.1985626940001,-38.98848249799994,0.0],[174.20414244300002,-38.988570179999954,0.0],[174.21030818200006,-38.98895287299996,0.0],[174.2185837710001,-38.988857,0.0],[174.2206803370001,-38.98853537799994,0.0],[174.22317054500002,-38.988153317999945,0.0],[174.2249153450001,-38.987885639999945,0.0],[174.22645624200004,-38.98786846099995,0.0],[174.2279730900001,-38.98769259599993,0.0],[174.22933615300008,-38.98753454399997,0.0],[174.23489444100005,-38.986269525999944,0.0],[174.2355734450001,-38.98577404599996,0.0],[174.23698229800004,-38.98474595099998,0.0],[174.2411894820001,-38.98334711199993,0.0],[174.2436942920001,-38.98346746599998,0.0],[174.24524272100007,-38.98404915399993,0.0],[174.24682726800006,-38.98414304299996,0.0],[174.25584000900005,-38.98467656499997,0.0],[174.25680988600004,-38.985116034999976,0.0],[174.26085445000012,-38.98521843299994,0.0],[174.26323571800003,-38.98637516699995,0.0],[174.2635725230001,-38.986538767999946,0.0],[174.27195272000006,-38.986524928999984,0.0],[174.27613349700005,-38.986517798999955,0.0],[174.2781984170001,-38.98651422299997,0.0],[174.2839600970001,-38.985848069999975,0.0],[174.28659691000007,-38.98518614899996,0.0],[174.28836374200012,-38.98474258099998,0.0],[174.29286989900004,-38.98399435099998,0.0],[174.30198448600004,-38.98247883999994,0.0],[174.30740509100008,-38.98270308999997,0.0],[174.30756801100006,-38.98271018299994,0.0],[174.31044965400008,-38.982374155999935,0.0],[174.3137455740001,-38.98368646499995,0.0],[174.31454179800005,-38.98502849399995,0.0],[174.31787257700012,-38.98798903699998,0.0],[174.32002008400002,-38.98946809599994,0.0],[174.32086753700003,-38.98971321199997,0.0],[174.32225340600007,-38.99011403999998,0.0],[174.32699024200008,-38.99148389299995,0.0],[174.33161599800007,-38.99187424899998,0.0],[174.33640735300003,-38.993154327999946,0.0],[174.33645606000005,-38.993167282999934,0.0],[174.34222744500005,-38.993097329999955,0.0],[174.34607092500005,-38.992748811999945,0.0],[174.34723420800003,-38.99318511399997,0.0],[174.34992038300004,-38.99270189999993,0.0],[174.3551085260001,-38.99233661599993,0.0],[174.3596891630001,-38.990478363999955,0.0],[174.3608463280001,-38.99061279999995,0.0],[174.3606710350001,-38.991362771999945,0.0],[174.3632026570001,-38.99283177399997,0.0],[174.36414591300002,-38.99191912799995,0.0],[174.368164416,-38.99081990899998,0.0],[174.36986827600003,-38.98944730299996,0.0],[174.3721767730001,-38.98941873299998,0.0],[174.37235728300004,-38.988817240999936,0.0],[174.374288588,-38.98909063199994,0.0],[174.37561713700006,-38.98817317399994,0.0],[174.3777388860001,-38.98844858599995,0.0],[174.38022462000004,-38.987665241999935,0.0],[174.38078632700012,-38.98690589399996,0.0],[174.38272068100002,-38.987332262999985,0.0],[174.38598937500012,-38.98729140399996,0.0],[174.38715280000008,-38.987727304999964,0.0],[174.3875517900001,-38.98832147699994,0.0],[174.3881454440001,-38.98891977999995,0.0],[174.38873070500006,-38.98950960899998,0.0],[174.39101431200004,-38.988278081999965,0.0],[174.39174095509802,-38.98802433097916,0.0],[174.3994796,-39.0597745,0.0],[174.2040448,-39.0958865,0.0],[174.0440926,-39.1482478,0.0],[174.0299451,-39.0993817,0.0],[174.0173525758292,-39.07000500604287,0.0],[174.018017836,-39.06893596899994,0.0]]]]}}]}