{"type":"FeatureCollection","features":[{"type":"Feature","properties":{},"geometry":{"type":"Polygon","coordinates":[[[174.968748,-37.454861],[174.7064266625316,-37.38901455395459],[174.54787193242848,-37.09437415865654],[174.53756387518575,-37.075082880254826],[174.53645047384143,-37.067497026773275],[174.535084893141,-37.058064705476305],[174.5357661270001,-37.053935981999985],[174.53665726100007,-37.051967386999934],[174.5418194780001,-37.04828763799998],[174.54832324900008,-37.045782129999964],[174.56308421800009,-37.04360589099997],[174.62723047500003,-37.036593162999964],[174.901457,-37.026297],[174.93862992269575,-37.093367450659],[175.067625,-37.326111],[174.968748,-37.454861]]]}}]}