{"type":"FeatureCollection","features":[{"type":"Feature","properties":{},"geometry":{"type":"MultiPolygon","coordinates":[[[[172.7289614285607,-43.26935471994748,0.0],[172.728759,-43.270478,0.0],[172.72839466779183,-43.27124257839883,0.0],[172.72791667900003,-43.27224495699994,0.0],[172.72723864357835,-43.27366673807298,0.0],[172.726686,-43.274825,0.0],[172.72647,-43.276773,0.0],[172.72587190764463,-43.277929215575874,0.0],[172.72522762100004,-43.27917354899995,0.0],[172.72379773500006,-43.279912612999965,0.0],[172.72313660070563,-43.28195311328237,0.0],[172.72297,-43.282467,0.0],[172.72261863320304,-43.28360936238532,0.0],[172.72255208800004,-43.28382565299995,0.0],[172.72242065842593,-43.28426821723781,0.0],[172.721391,-43.287735,0.0],[172.719616,-43.29371,0.0],[172.71942057937966,-43.294963291389486,0.0],[172.71919463500012,-43.296409696999945,0.0],[172.71759701857985,-43.30049044348569,0.0],[172.716494,-43.303307,0.0],[172.7159052452423,-43.307465253775234,0.0],[172.71585697400008,-43.30780598999996,0.0],[172.71565982900006,-43.30844352999998,0.0],[172.71522869763203,-43.30983765855211,0.0],[172.714605,-43.311853,0.0],[172.713761,-43.316203,0.0],[172.713329,-43.321004,0.0],[172.71229,-43.323549,0.0],[172.711749,-43.326057,0.0],[172.711449,-43.327449,0.0],[172.711117,-43.331187,0.0],[172.7110825703372,-43.33157720284511,0.0],[172.71106888000008,-43.33173126699995,0.0],[172.71058291200006,-43.33719959199993,0.0],[172.71017635478563,-43.338294814038704,0.0],[172.710089,-43.33853,0.0],[172.709748,-43.339448,0.0],[172.708903,-43.344698,0.0],[172.70892019173564,-43.34554223701885,0.0],[172.7090706670001,-43.35294778999997,0.0],[172.70777865500008,-43.36509595999996,0.0],[172.70834974700006,-43.366954851999935,0.0],[172.7087929800001,-43.368397485999935,0.0],[172.70879093452652,-43.3688231760238,0.0],[172.70876,-43.375206,0.0],[172.70875339471735,-43.376635383167695,0.0],[172.70874466600003,-43.378451534999954,0.0],[172.70955486100002,-43.38115394099998,0.0],[172.70994384200003,-43.38625402599996,0.0],[172.7097349692227,-43.38685603697241,0.0],[172.709114,-43.387602,0.0],[172.705816,-43.388795,0.0],[172.7058160932516,-43.38879513867949,0.0],[172.70581568600005,-43.38879528599995,0.0],[172.7068275150001,-43.39029980099997,0.0],[172.7068278088461,-43.39029971572469,0.0],[172.706828,-43.3903,0.0],[172.70683262669064,-43.390298317567044,0.0],[172.70683893800003,-43.390296485999954,0.0],[172.70835112710537,-43.390742129029135,0.0],[172.70992,-43.391205,0.0],[172.71062369820046,-43.39185041381845,0.0],[172.71074103700005,-43.39195813499998,0.0],[172.71135386000003,-43.39285985699996,0.0],[172.71140085600007,-43.39360587899995,0.0],[172.71202491600002,-43.403510352999945,0.0],[172.7121196170001,-43.40501307499994,0.0],[172.71288873096643,-43.40786394792985,0.0],[172.71293,-43.408017,0.0],[172.71292917829263,-43.408209964279834,0.0],[172.71290583782945,-43.41365298577948,0.0],[172.646512,-43.407831,0.0],[172.573684,-43.480535,0.0],[172.521579,-43.544828,0.0],[172.442878,-43.524612,0.0],[172.298691,-43.487391,0.0],[172.11646,-43.420126,0.0],[171.977757,-43.320297,0.0],[171.929297,-43.279365,0.0],[172.301437,-43.043389,0.0],[172.370436,-43.083641,0.0],[172.425412,-43.109796,0.0],[172.448063,-43.122301,0.0],[172.473433,-43.127756,0.0],[172.724411,-43.265795,0.0],[172.72916669826105,-43.26821384652933,0.0],[172.7289614285607,-43.26935471994748,0.0]]]]}}]}