{"type":"FeatureCollection","features":[{"type":"Feature","properties":{},"geometry":{"type":"MultiPolygon","coordinates":[[[[173.3605373470001,-42.804533720999984,0.0],[173.36033826000005,-42.805434521999985,0.0],[173.35952758000008,-42.80648571399996,0.0],[173.35952396900007,-42.80650643299998,0.0],[173.35932923200005,-42.80753497999996,0.0],[173.35770466100007,-42.80889023799995,0.0],[173.3569909910001,-42.80919875699993,0.0],[173.35526168,-42.80994630599997,0.0],[173.35494609300008,-42.81100690899996,0.0],[173.3548595310001,-42.81129781499993,0.0],[173.35420094200003,-42.81196913799994,0.0],[173.35161321900011,-42.814606724999976,0.0],[173.35100762800005,-42.81565722499994,0.0],[173.35081165200006,-42.817156643999965,0.0],[173.3493850850001,-42.817908028999966,0.0],[173.34756154000002,-42.81986230299998,0.0],[173.34451052200006,-42.82212168399997,0.0],[173.34369853400005,-42.823024206999946,0.0],[173.34227384000008,-42.82347846999994,0.0],[173.34085265700003,-42.82483287799994,0.0],[173.3400449720001,-42.82633400599997,0.0],[173.3395278270001,-42.82658754899995,0.0],[173.33943462800005,-42.82723589899996,0.0],[173.33760181200012,-42.82753825299994,0.0],[173.33617569000012,-42.82827086399993,0.0],[173.3349587230001,-42.828896002999954,0.0],[173.33272014400006,-42.830698189999964,0.0],[173.33099258800007,-42.83343658499996,0.0],[173.32841501300004,-42.83752186799995,0.0],[173.32826533200011,-42.83775908499996,0.0],[173.32561891000012,-42.83881509899993,0.0],[173.3211506870001,-42.843476763999945,0.0],[173.31648367600008,-42.84963761199998,0.0],[173.315737301,-42.85108788499997,0.0],[173.31486225600008,-42.852788078999936,0.0],[173.3135985670001,-42.854581887999984,0.0],[173.31242961400005,-42.85624217399993,0.0],[173.31121482800006,-42.858797426999956,0.0],[173.31081582000002,-42.861048927999946,0.0],[173.30980142700002,-42.86255030399997,0.0],[173.30900535700005,-42.86749895699995,0.0],[173.30901265300008,-42.86900215399993,0.0],[173.31167375200005,-42.87139418199996,0.0],[173.31188297800009,-42.87214530999995,0.0],[173.3110690950001,-42.87289462999996,0.0],[173.31066858400004,-42.87484451299997,0.0],[173.3108741750001,-42.87559565299995,0.0],[173.3132463881364,-42.87785464364122,0.0],[173.315253,-42.879766,0.0],[173.31542975275468,-42.87993378321191,0.0],[173.3155875430001,-42.88008402799994,0.0],[173.31566404216878,-42.88009711071875,0.0],[173.315733,-42.880109,0.0],[173.31611264762947,-42.880173826974996,0.0],[173.31675181800006,-42.88028313099994,0.0],[173.31887251511858,-42.880645755942766,0.0],[173.31906053497582,-42.88067792044844,0.0],[173.31928686958906,-42.88089761587079,0.0],[173.319675,-42.881275,0.0],[173.318873,-42.884878,0.0],[173.318264,-42.885478,0.0],[173.31541,-42.886984,0.0],[173.31496032404795,-42.887032797253035,0.0],[173.3146822010001,-42.88706275499993,0.0],[173.3111251360001,-42.88744583299996,0.0],[173.31048534242373,-42.88777271592109,0.0],[173.308478,-42.888798,0.0],[173.3042977665015,-42.892028647287205,0.0],[173.30400140400002,-42.89225767199997,0.0],[173.30400134654607,-42.89225773217569,0.0],[173.304001,-42.892258,0.0],[173.30326277606605,-42.893031291082316,0.0],[173.3015588190001,-42.89481596999997,0.0],[173.30156069100008,-42.89521479599995,0.0],[173.3015677077073,-42.89670898935367,0.0],[173.301572,-42.897665,0.0],[173.30122498745132,-42.898050000392246,0.0],[173.3007586330081,-42.898567147179044,0.0],[173.300567,-42.898644,0.0],[173.296273,-42.900374,0.0],[173.295255,-42.901128,0.0],[173.29525471579248,-42.90112842053611,0.0],[173.2952546260001,-42.90112848699994,0.0],[173.29508261742941,-42.901383071008084,0.0],[173.293631,-42.903531,0.0],[173.292409,-42.904583,0.0],[173.290378,-42.907734,0.0],[173.289439,-42.908477,0.0],[173.287523,-42.908641,0.0],[173.28503910651858,-42.91047508669296,0.0],[173.28487443200004,-42.910596649999945,0.0],[173.28263244300013,-42.911200571999984,0.0],[173.28124851557342,-42.91128121709401,0.0],[173.279976,-42.911355,0.0],[173.27887787061024,-42.91103610150435,0.0],[173.27793414400003,-42.91076163599996,0.0],[173.27424815900008,-42.90791662899994,0.0],[173.2738385990001,-42.908066074999965,0.0],[173.27384495100011,-42.90956935699995,0.0],[173.27446300100007,-42.91091820499997,0.0],[173.2762634648876,-42.91176320601081,0.0],[173.277326,-42.912262,0.0],[173.27904533486458,-42.91225779036584,0.0],[173.28018521481943,-42.91225512233745,0.0],[173.28202688761382,-42.91330393599723,0.0],[173.2791741650001,-42.91570958099993,0.0],[173.27815801300005,-42.917210756999964,0.0],[173.2773455350001,-42.917662716999985,0.0],[173.27497693353348,-42.920130663452404,0.0],[173.273886,-42.921267,0.0],[173.271643,-42.923221,0.0],[173.2714449795926,-42.9232861070369,0.0],[173.2698086480001,-42.92382373199996,0.0],[173.2687889890001,-42.92457773199993,0.0],[173.26879094600008,-42.925027805999946,0.0],[173.26879280100002,-42.92547787999996,0.0],[173.2663224217663,-42.92859034255359,0.0],[173.265336,-42.929833,0.0],[173.26248,-42.931937,0.0],[173.26174213313843,-42.93302813481128,0.0],[173.26085472800003,-42.93433961599993,0.0],[173.25929759013488,-42.93561547961691,0.0],[173.259021,-42.935842,0.0],[173.25902067780072,-42.93584237177601,0.0],[173.25902065800005,-42.93584238799997,0.0],[173.25576467400003,-42.939598613999976,0.0],[173.25422951818186,-42.94186563598192,0.0],[173.253121,-42.943502,0.0],[173.250266,-42.944858,0.0],[173.24959347881128,-42.94538829331829,0.0],[173.24740965600006,-42.94711009699995,0.0],[173.24695245158793,-42.94765827163926,0.0],[173.245781,-42.949062,0.0],[173.245581,-42.950264,0.0],[173.24558129082922,-42.95026421170656,0.0],[173.24558124600003,-42.95026448099998,0.0],[173.24573576591916,-42.95037666048527,0.0],[173.245989,-42.950561,0.0],[173.2459902459306,-42.950811432055026,0.0],[173.24599159100012,-42.95116384199997,0.0],[173.2456100012545,-42.95138914660834,0.0],[173.244974,-42.951764,0.0],[173.24471817437322,-42.952237308837766,0.0],[173.24456668800008,-42.95251694399997,0.0],[173.2432073677032,-42.953458042705265,0.0],[173.241098,-42.954918,0.0],[173.239468,-42.95552,0.0],[173.23314886377972,-42.95901238053764,0.0],[173.23211971400008,-42.95958111699997,0.0],[173.22517880100008,-42.96259191499996,0.0],[173.2231639273593,-42.96415285342147,0.0],[173.221102,-42.96575,0.0],[173.212117,-42.969209,0.0],[173.207416,-42.970266,0.0],[173.20472825668818,-42.971612504633285,0.0],[173.20231230900004,-42.97282257299997,0.0],[173.19802452200008,-42.97447695499994,0.0],[173.19679810700006,-42.97552768299994,0.0],[173.1929241647226,-42.97610080564717,0.0],[173.191692,-42.976283,0.0],[173.19096847944758,-42.97675708497318,0.0],[173.1898530750001,-42.977487724999946,0.0],[173.18922017954282,-42.977603656061554,0.0],[173.188217,-42.977787,0.0],[173.18597000622555,-42.97869099749537,0.0],[173.18595355010657,-42.978691022990766,0.0],[173.183108,-42.978695,0.0],[173.18012499418182,-42.9793961026361,0.0],[173.17861512700006,-42.979750782999986,0.0],[173.17660787220285,-42.979844825405735,0.0],[173.175342,-42.979904,0.0],[173.170228,-42.978408,0.0],[173.167982,-42.978411,0.0],[173.166755,-42.97916,0.0],[173.16675492146942,-42.97916012695776,0.0],[173.16675474600004,-42.97916023399995,0.0],[173.16629891772874,-42.97989733300521,0.0],[173.16573502859134,-42.98080895377734,0.0],[173.1641049317793,-42.98156438673151,0.0],[173.162032,-42.982525,0.0],[173.16175389903844,-42.982653909782734,0.0],[173.1602220520001,-42.98336374499996,0.0],[173.15511075300003,-42.985467738999944,0.0],[173.15184185600003,-42.98592201699995,0.0],[173.15101652293436,-42.98615027508943,0.0],[173.148573,-42.986826,0.0],[173.148401,-42.986844,0.0],[173.14676689639543,-42.98701585110371,0.0],[173.14571030600007,-42.987126701999955,0.0],[173.14141764500005,-42.989382184999954,0.0],[173.1395818960001,-42.99103158599996,0.0],[173.13590271500004,-42.993731681999975,0.0],[173.13571561000003,-42.99397589299997,0.0],[173.1340657940001,-42.99613267799998,0.0],[173.13341263000672,-42.99654438110687,0.0],[173.132635,-42.997034,0.0],[173.1318251461505,-42.99784094767541,0.0],[173.13179898200008,-42.99786699799995,0.0],[173.13174946156633,-42.99791641254185,0.0],[173.131012,-42.998652,0.0],[173.129775,-42.999886,0.0],[173.1282188147346,-43.00186294448861,0.0],[173.1275299980001,-43.00273782399995,0.0],[173.115145782,-43.012821981999934,0.0],[173.10924609347498,-43.01797725812868,0.0],[173.107627,-43.019392,0.0],[173.102728,-43.024797,0.0],[173.09982899882402,-43.02741660380429,0.0],[173.0955788660001,-43.03125671599997,0.0],[173.09374191900008,-43.033810012999936,0.0],[173.09203773700006,-43.03575904199994,0.0],[173.0908825201,-43.037080068358115,0.0],[173.088228,-43.040115,0.0],[173.086186,-43.042817,0.0],[173.082916,-43.045974,0.0],[173.0829159189405,-43.045974179446226,0.0],[173.0829157920001,-43.045974301999934,0.0],[173.08283325015697,-43.04615718822746,0.0],[173.082509,-43.046875,0.0],[173.083941,-43.048521,0.0],[173.0836835437351,-43.049090313607884,0.0],[173.08353381693132,-43.04942115390048,0.0],[173.08254347886154,-43.05025370225686,0.0],[173.08210277463544,-43.05062411029415,0.0],[173.08197964111608,-43.05068437224804,0.0],[173.07903602900012,-43.05212477899994,0.0],[173.07616964500005,-43.05182952699994,0.0],[173.0739214869172,-43.051830844988004,0.0],[173.073509,-43.051831,0.0],[173.07142064691337,-43.051258201871775,0.0],[173.06859762500005,-43.05048365899995,0.0],[173.06615357795212,-43.05055256413634,0.0],[173.063072,-43.050639,0.0],[173.06055394490048,-43.049929555475345,0.0],[173.06041048800012,-43.04988911299995,0.0],[173.05897694600003,-43.04853956299996,0.0],[173.0575508976987,-43.04784494932627,0.0],[173.056521,-43.047343,0.0],[173.05070265047476,-43.04722848110749,0.0],[173.04915355600008,-43.047197867999955,0.0],[173.0454721000001,-43.04795079599995,0.0],[173.0407420260001,-43.049424957999975,0.0],[173.03872032000004,-43.05005471199996,0.0],[173.03815956510365,-43.05026035309935,0.0],[173.037249,-43.050594,0.0],[173.031353,-43.052757,0.0],[173.0266349037639,-43.05521959607978,0.0],[173.02214874600008,-43.05756092299998,0.0],[173.01982194078494,-43.05834834757432,0.0],[173.011506,-43.061162,0.0],[173.008437,-43.063264,0.0],[173.0059184573585,-43.06459947688508,0.0],[173.004751821,-43.06521781499998,0.0],[173.00147610800002,-43.067616613999974,0.0],[173.0007570837337,-43.068011868670894,0.0],[172.99973,-43.068576,0.0],[172.99831862833665,-43.06935230056826,0.0],[172.9982014750001,-43.06941669999998,0.0],[172.9982014515355,-43.06941675164071,0.0],[172.998201,-43.069417,0.0],[172.997792,-43.070317,0.0],[172.99730484742886,-43.07080921776608,0.0],[172.99615678100008,-43.07196850099996,0.0],[172.9924685670969,-43.073415431665055,0.0],[172.990422,-43.074218,0.0],[172.985715,-43.075122,0.0],[172.98314111236897,-43.07603285361509,0.0],[172.97977774600008,-43.07722272199993,0.0],[172.97363524500008,-43.07797278299995,0.0],[172.97220058800008,-43.07871952399995,0.0],[172.9699260522134,-43.079275588029944,0.0],[172.96913,-43.07947,0.0],[172.966876,-43.081121,0.0],[172.959708,-43.084269,0.0],[172.953361,-43.085621,0.0],[172.95172437983805,-43.08574292174739,0.0],[172.9453744440001,-43.08621567999995,0.0],[172.93861644300011,-43.08711661799998,0.0],[172.9374088671125,-43.08772225710605,0.0],[172.934689,-43.089086,0.0],[172.93307902238243,-43.08989371926729,0.0],[172.93144584200002,-43.09071271399995,0.0],[172.93047205863735,-43.09142513768607,0.0],[172.928987,-43.092511,0.0],[172.92694299603556,-43.09320077461112,0.0],[172.92632327400008,-43.093409743999985,0.0],[172.92181855900003,-43.093856639999956,0.0],[172.9202906622296,-43.09415550347078,0.0],[172.918747,-43.094457,0.0],[172.91590977360687,-43.09589908621933,0.0],[172.9140329930001,-43.09685269299996,0.0],[172.9136633102128,-43.09696130755484,0.0],[172.913009,-43.097153,0.0],[172.907273,-43.09745,0.0],[172.90675379334903,-43.09761256888863,0.0],[172.90297111900009,-43.09879661999997,0.0],[172.89600659300004,-43.098641681999936,0.0],[172.89516884608454,-43.09845238381919,0.0],[172.893346,-43.09804,0.0],[172.889464,-43.098275,0.0],[172.888432,-43.098337,0.0],[172.886176,-43.099086,0.0],[172.884739,-43.100435,0.0],[172.8842122114201,-43.100819929990074,0.0],[172.88146029400002,-43.10283054399997,0.0],[172.8789768508035,-43.103954356858985,0.0],[172.877154,-43.104779,0.0],[172.87648473866298,-43.10526707107262,0.0],[172.87551408500008,-43.10597450199998,0.0],[172.87547730809013,-43.10601169190986,0.0],[172.875444,-43.106045,0.0],[172.872846,-43.108676,0.0],[172.862239,-43.116914,0.0],[172.860532,-43.119013,0.0],[172.85924725293026,-43.12020258062013,0.0],[172.8582097850001,-43.12116281599998,0.0],[172.85764753687195,-43.12168311121484,0.0],[172.85745320286247,-43.12186281241251,0.0],[172.85694946693633,-43.12198386432366,0.0],[172.856224,-43.122158,0.0],[172.85579348272626,-43.12235464309093,0.0],[172.85458154900005,-43.12290773899997,0.0],[172.8535535850001,-43.125156741999945,0.0],[172.85109236100004,-43.12650366499997,0.0],[172.84760181900003,-43.12905089399993,0.0],[172.84534117400005,-43.13114962299994,0.0],[172.84431580700004,-43.131746755999984,0.0],[172.8402178030001,-43.13144391599997,0.0],[172.83981885577606,-43.1315903854122,0.0],[172.8394,-43.131744,0.0],[172.83939969782742,-43.131744274986254,0.0],[172.83939967600008,-43.13174428299993,0.0],[172.83775484500006,-43.133240608999984,0.0],[172.83713541232115,-43.13354097908741,0.0],[172.836524,-43.133837,0.0],[172.83496705187372,-43.13398026579346,0.0],[172.83488293100004,-43.133987984999976,0.0],[172.83486098950047,-43.133983932939856,0.0],[172.832426,-43.133534,0.0],[172.83217439459975,-43.133518763027006,0.0],[172.83178206800005,-43.133494602999974,0.0],[172.8299682910001,-43.13338199499998,0.0],[172.82996821509997,-43.13338201339928,0.0],[172.829968,-43.133382,0.0],[172.828123,-43.133829,0.0],[172.82753653191992,-43.13379283016246,0.0],[172.82630723800003,-43.13371663099997,0.0],[172.82577374000005,-43.13368374899994,0.0],[172.82567819400003,-43.13367785999998,0.0],[172.82566324800007,-43.13367693899994,0.0],[172.82566308735528,-43.133677005823685,0.0],[172.825663,-43.133677,0.0],[172.82564698484134,-43.133683704019894,0.0],[172.8256196970001,-43.133695054999976,0.0],[172.82512959202435,-43.133898925043106,0.0],[172.82423,-43.134273,0.0],[172.822997,-43.134271,0.0],[172.82028749922932,-43.13301209637463,0.0],[172.81910980200007,-43.132464769999956,0.0],[172.8178918870001,-43.13246277099995,0.0],[172.817579527059,-43.13246225601681,0.0],[172.817472,-43.132462,0.0],[172.81747207055437,-43.13246207885488,0.0],[172.81747155200003,-43.132462077999946,0.0],[172.81750805060287,-43.13250229185026,0.0],[172.817523,-43.132519,0.0],[172.81828970480544,-43.13336367478567,0.0],[172.81356177100008,-43.13800957099994,0.0],[172.80821798800002,-43.14280286699994,0.0],[172.80729197750097,-43.143772636442314,0.0],[172.804927,-43.146249,0.0],[172.802872,-43.147893,0.0],[172.80206189211418,-43.1482994119415,0.0],[172.7995906110001,-43.14953881799994,0.0],[172.79909529500003,-43.150137610999934,0.0],[172.79904399768384,-43.150181180874704,0.0],[172.798782,-43.150403,0.0],[172.79809093515203,-43.15082399352807,0.0],[172.7977378390001,-43.15103879099996,0.0],[172.79775958928934,-43.15108672369221,0.0],[172.797928,-43.151459,0.0],[172.79808209856427,-43.15179745392425,0.0],[172.79814661700004,-43.15193963499996,0.0],[172.79814694305654,-43.15193987493237,0.0],[172.798147,-43.15194,0.0],[172.79875981794814,-43.152390866059726,0.0],[172.7948507960001,-43.15688452899997,0.0],[172.78806340900007,-43.16392456899996,0.0],[172.78806339683408,-43.1639245884337,0.0],[172.788063,-43.163925,0.0],[172.784968,-43.168869,0.0],[172.780644,-43.174113,0.0],[172.777759,-43.178757,0.0],[172.77466440684086,-43.1813663064857,0.0],[172.77385010900002,-43.18205285799996,0.0],[172.77384750645996,-43.18205624255745,0.0],[172.769935,-43.187144,0.0],[172.76951249181093,-43.18856886309033,0.0],[172.76931196700002,-43.18924481499994,0.0],[172.7680748460001,-43.19104254499996,0.0],[172.7678892842118,-43.19171354113912,0.0],[172.767659,-43.192545,0.0],[172.768067,-43.192996,0.0],[172.7665,-43.194941,0.0],[172.76486060951316,-43.196975921347345,0.0],[172.76312215300004,-43.19913351799994,0.0],[172.75404583300008,-43.21172062499994,0.0],[172.75342310200006,-43.21351950799993,0.0],[172.75305801168827,-43.21365086166299,0.0],[172.753013,-43.213667,0.0],[172.75301296637147,-43.21366706824852,0.0],[172.75301267800012,-43.21366717199993,0.0],[172.7509438080001,-43.21786623599996,0.0],[172.75031178900008,-43.21991283999995,0.0],[172.7502306968082,-43.22017542416368,0.0],[172.75011,-43.220565,0.0],[172.746598,-43.226858,0.0],[172.74546471192835,-43.22972496284247,0.0],[172.74513692900007,-43.23055392599997,0.0],[172.7432785090001,-43.23525332699995,0.0],[172.7399749010001,-43.24049805399994,0.0],[172.73975764300008,-43.24319797099997,0.0],[172.7372775650001,-43.24724287099997,0.0],[172.73450228300447,-43.25302915693792,0.0],[172.733754,-43.254589,0.0],[172.7337383130125,-43.25462625659529,0.0],[172.73373808500003,-43.25462679299994,0.0],[172.73188975100004,-43.25848195599997,0.0],[172.73161898856978,-43.25965046621435,0.0],[172.731264,-43.261181,0.0],[172.73037454650674,-43.26329314576087,0.0],[172.7298116190001,-43.26462942599994,0.0],[172.7292109369161,-43.26796797144141,0.0],[172.724411,-43.265795,0.0],[172.473433,-43.127756,0.0],[172.448063,-43.122301,0.0],[172.425412,-43.109796,0.0],[172.370436,-43.083641,0.0],[172.301437,-43.043389,0.0],[172.691522,-42.65004,0.0],[172.801766,-42.690784,0.0],[172.826237,-42.702718,0.0],[172.836735,-42.706393,0.0],[172.844687,-42.705666,0.0],[172.861281,-42.702179,0.0],[172.868381,-42.703778,0.0],[172.883958,-42.700908,0.0],[172.911672,-42.691607,0.0],[172.934128,-42.680546,0.0],[172.942638,-42.67507,0.0],[172.950043,-42.672692,0.0],[172.953171,-42.66894,0.0],[172.963542,-42.665967,0.0],[172.966426,-42.663046,0.0],[172.979048,-42.657189,0.0],[172.980937,-42.65355,0.0],[172.988824,-42.648788,0.0],[172.996366,-42.651375,0.0],[173.009382,-42.648955,0.0],[173.02099,-42.647128,0.0],[173.031866,-42.654065,0.0],[173.028918,-42.661378,0.0],[173.034051,-42.6765,0.0],[173.05259,-42.686522,0.0],[173.190718,-42.730289,0.0],[173.36072883407746,-42.804427274477696,0.0],[173.3605373470001,-42.804533720999984,0.0]]],[[[173.07557088734208,-43.06323001692616,0.0],[173.07476375355307,-43.06335128385641,0.0],[173.07454611200012,-43.06338390999997,0.0],[173.07423317132984,-43.06315311176487,0.0],[173.07372905369763,-43.062781039632405,0.0],[173.07372807600007,-43.06188118299997,0.0],[173.07413671400002,-43.061732365999944,0.0],[173.07480409051917,-43.062220909989605,0.0],[173.075365,-43.062632,0.0],[173.07552777524612,-43.063104522316436,0.0],[173.07557088734208,-43.06323001692616,0.0]]]]}},{"type":"Feature","properties":{},"geometry":{"type":"MultiPolygon","coordinates":[[[[171.977757,-43.320297,0.0],[171.929297,-43.279365,0.0],[171.617682,-43.47558,0.0],[171.617176,-43.476924,0.0],[171.61727,-43.477833,0.0],[171.618018,-43.479183,0.0],[171.623205,-43.482195,0.0],[171.62508,-43.483672,0.0],[171.625228,-43.486066,0.0],[171.624406,-43.487491,0.0],[171.624393,-43.489718,0.0],[171.625656,-43.491432,0.0],[171.625607,-43.492805,0.0],[171.624736,-43.493684,0.0],[171.625483,-43.49538,0.0],[171.627231,-43.49654,0.0],[171.630439,-43.497078,0.0],[171.632562,-43.497967,0.0],[171.633891,-43.499496,0.0],[171.633888,-43.50025,0.0],[171.632509,-43.501509,0.0],[171.631638,-43.503342,0.0],[171.632043,-43.504207,0.0],[171.633625,-43.505065,0.0],[171.634816,-43.505287,0.0],[171.637196,-43.504922,0.0],[171.640585,-43.505499,0.0],[171.643758,-43.507276,0.0],[171.64444,-43.507965,0.0],[171.643572,-43.509593,0.0],[171.642008,-43.51123,0.0],[171.641625,-43.512077,0.0],[171.641548,-43.5129,0.0],[171.642594,-43.513301,0.0],[171.64606,-43.514041,0.0],[171.646383,-43.515084,0.0],[171.647935,-43.515491,0.0],[171.652064,-43.514934,0.0],[171.654228,-43.515064,0.0],[171.656324,-43.515509,0.0],[171.658244,-43.516028,0.0],[171.658478,-43.516317,0.0],[171.657744,-43.517114,0.0],[171.657822,-43.517806,0.0],[171.658107,-43.518037,0.0],[171.658827,-43.518749,0.0],[171.660332,-43.519955,0.0],[171.663043,-43.521496,0.0],[171.66562,-43.523404,0.0],[171.666223,-43.52581,0.0],[171.667859,-43.528006,0.0],[171.668984,-43.5296,0.0],[171.669605,-43.529924,0.0],[171.670673,-43.5297,0.0],[171.672553,-43.529751,0.0],[171.674941,-43.530785,0.0],[171.676368,-43.53217,0.0],[171.678021,-43.533508,0.0],[171.683868,-43.536576,0.0],[171.686411,-43.538338,0.0],[171.689179,-43.539,0.0],[171.690595,-43.538953,0.0],[171.694472,-43.538363,0.0],[171.696031,-43.538302,0.0],[171.70181,-43.538429,0.0],[171.704699,-43.537561,0.0],[171.706013,-43.537507,0.0],[171.70744,-43.538144,0.0],[171.70892,-43.538486,0.0],[171.714427,-43.539346,0.0],[171.719719,-43.541823,0.0],[171.726356,-43.546529,0.0],[171.727871,-43.548225,0.0],[171.729958,-43.549503,0.0],[171.733102,-43.552866,0.0],[171.73519,-43.557333,0.0],[171.739811,-43.561488,0.0],[171.741756,-43.562458,0.0],[171.74436,-43.564461,0.0],[171.745447,-43.565917,0.0],[171.74702,-43.566528,0.0],[171.748022,-43.567874,0.0],[171.748567,-43.568141,0.0],[171.750086,-43.569358,0.0],[171.752088,-43.570225,0.0],[171.754219,-43.571091,0.0],[171.755476,-43.572388,0.0],[171.756704,-43.57405,0.0],[171.757701,-43.574576,0.0],[171.758921,-43.574632,0.0],[171.760246,-43.574495,0.0],[171.760836,-43.574719,0.0],[171.762873,-43.575229,0.0],[171.764546,-43.576932,0.0],[171.767291,-43.577665,0.0],[171.770808,-43.579628,0.0],[171.77312,-43.581752,0.0],[171.773811,-43.583207,0.0],[171.77596,-43.584599,0.0],[171.776397,-43.58552,0.0],[171.776069,-43.587236,0.0],[171.778417,-43.590792,0.0],[171.780454,-43.592433,0.0],[171.781601,-43.592958,0.0],[171.783076,-43.593967,0.0],[171.784808,-43.594851,0.0],[171.787102,-43.596648,0.0],[171.787992,-43.596897,0.0],[171.79605,-43.59929,0.0],[171.797573,-43.600408,0.0],[171.798303,-43.602209,0.0],[171.799849,-43.604072,0.0],[171.800709,-43.604564,0.0],[171.801571,-43.606296,0.0],[171.802095,-43.608702,0.0],[171.803314,-43.610096,0.0],[171.803434,-43.610958,0.0],[171.805651,-43.613054,0.0],[171.807938,-43.614948,0.0],[171.809253,-43.616686,0.0],[171.810595,-43.617674,0.0],[171.813451,-43.618782,0.0],[171.815816,-43.620687,0.0],[171.815999,-43.621327,0.0],[171.816794,-43.621924,0.0],[171.817697,-43.622248,0.0],[171.818818,-43.622151,0.0],[171.81996,-43.622255,0.0],[171.821145,-43.623447,0.0],[171.823312,-43.623864,0.0],[171.823697,-43.625072,0.0],[171.825843,-43.626742,0.0],[171.828313,-43.62951,0.0],[171.829131,-43.629856,0.0],[171.830852,-43.63117,0.0],[171.831978,-43.631963,0.0],[171.833285,-43.633208,0.0],[171.833882,-43.633338,0.0],[171.834346,-43.633318,0.0],[171.835188,-43.633588,0.0],[171.836245,-43.634014,0.0],[171.837173,-43.634501,0.0],[171.837539,-43.635085,0.0],[171.838221,-43.635694,0.0],[171.838967,-43.635978,0.0],[171.839686,-43.63608,0.0],[171.840525,-43.636097,0.0],[171.841688,-43.636224,0.0],[171.842725,-43.636665,0.0],[171.843384,-43.637235,0.0],[171.843714,-43.637817,0.0],[171.843817,-43.638825,0.0],[171.84398,-43.639227,0.0],[171.844864,-43.639689,0.0],[171.845989,-43.641016,0.0],[171.846092,-43.641994,0.0],[171.845483,-43.643142,0.0],[171.845638,-43.643607,0.0],[171.846034,-43.643945,0.0],[171.846998,-43.64459,0.0],[171.847638,-43.645446,0.0],[171.848919,-43.645947,0.0],[171.850666,-43.646949,0.0],[171.851885,-43.647928,0.0],[171.852393,-43.648488,0.0],[171.853118,-43.649421,0.0],[171.853843,-43.649703,0.0],[171.854434,-43.650328,0.0],[171.854931,-43.651112,0.0],[171.855494,-43.651592,0.0],[171.856064,-43.651716,0.0],[171.857074,-43.652086,0.0],[171.858022,-43.652673,0.0],[171.858974,-43.653163,0.0],[171.86002,-43.65349,0.0],[171.860824,-43.653523,0.0],[171.862088,-43.653745,0.0],[171.863115,-43.654127,0.0],[171.86401,-43.654859,0.0],[171.864169,-43.655609,0.0],[171.864788,-43.656085,0.0],[171.865639,-43.656105,0.0],[171.866612,-43.656238,0.0],[171.867186,-43.656815,0.0],[171.867518,-43.657472,0.0],[171.867581,-43.657792,0.0],[171.867777,-43.657955,0.0],[171.869583,-43.658848,0.0],[171.870234,-43.659331,0.0],[171.870848,-43.659644,0.0],[171.871261,-43.659742,0.0],[171.87183,-43.659813,0.0],[171.872754,-43.659739,0.0],[171.873357,-43.659995,0.0],[171.873746,-43.660474,0.0],[171.874654,-43.660906,0.0],[171.875613,-43.661117,0.0],[171.876885,-43.661632,0.0],[171.877885,-43.662477,0.0],[171.878512,-43.6637,0.0],[171.879424,-43.664346,0.0],[171.880602,-43.664923,0.0],[171.880761,-43.665152,0.0],[171.881091,-43.665552,0.0],[171.882331,-43.666229,0.0],[171.882986,-43.666681,0.0],[171.883331,-43.66684,0.0],[171.884236,-43.666941,0.0],[171.884865,-43.666941,0.0],[171.885608,-43.667112,0.0],[171.886752,-43.66733,0.0],[171.887215,-43.667331,0.0],[171.887669,-43.667365,0.0],[171.888362,-43.667603,0.0],[171.889212,-43.667784,0.0],[171.889667,-43.66799,0.0],[171.890106,-43.668278,0.0],[171.890533,-43.668605,0.0],[171.890915,-43.669027,0.0],[171.891208,-43.669437,0.0],[171.891449,-43.669714,0.0],[171.892039,-43.670035,0.0],[171.892961,-43.670412,0.0],[171.893647,-43.670964,0.0],[171.893839,-43.671215,0.0],[171.894009,-43.671578,0.0],[171.894391,-43.672287,0.0],[171.896272,-43.673116,0.0],[172.047956,-43.615975,0.0],[172.278669,-43.567238,0.0],[172.521579,-43.544828,0.0],[172.298691,-43.487391,0.0],[172.11646,-43.420126,0.0],[171.977757,-43.320297,0.0]]]]}},{"type":"Feature","properties":{},"geometry":{"type":"MultiPolygon","coordinates":[[[[172.7289614285607,-43.26935471994748,0.0],[172.728759,-43.270478,0.0],[172.72839466779183,-43.27124257839883,0.0],[172.72791667900003,-43.27224495699994,0.0],[172.72723864357835,-43.27366673807298,0.0],[172.726686,-43.274825,0.0],[172.72647,-43.276773,0.0],[172.72587190764463,-43.277929215575874,0.0],[172.72522762100004,-43.27917354899995,0.0],[172.72379773500006,-43.279912612999965,0.0],[172.72313660070563,-43.28195311328237,0.0],[172.72297,-43.282467,0.0],[172.72261863320304,-43.28360936238532,0.0],[172.72255208800004,-43.28382565299995,0.0],[172.72242065842593,-43.28426821723781,0.0],[172.721391,-43.287735,0.0],[172.719616,-43.29371,0.0],[172.71942057937966,-43.294963291389486,0.0],[172.71919463500012,-43.296409696999945,0.0],[172.71759701857985,-43.30049044348569,0.0],[172.716494,-43.303307,0.0],[172.7159052452423,-43.307465253775234,0.0],[172.71585697400008,-43.30780598999996,0.0],[172.71565982900006,-43.30844352999998,0.0],[172.71522869763203,-43.30983765855211,0.0],[172.714605,-43.311853,0.0],[172.713761,-43.316203,0.0],[172.713329,-43.321004,0.0],[172.71229,-43.323549,0.0],[172.711749,-43.326057,0.0],[172.711449,-43.327449,0.0],[172.711117,-43.331187,0.0],[172.7110825703372,-43.33157720284511,0.0],[172.71106888000008,-43.33173126699995,0.0],[172.71058291200006,-43.33719959199993,0.0],[172.71017635478563,-43.338294814038704,0.0],[172.710089,-43.33853,0.0],[172.709748,-43.339448,0.0],[172.708903,-43.344698,0.0],[172.70892019173564,-43.34554223701885,0.0],[172.7090706670001,-43.35294778999997,0.0],[172.70777865500008,-43.36509595999996,0.0],[172.70834974700006,-43.366954851999935,0.0],[172.7087929800001,-43.368397485999935,0.0],[172.70879093452652,-43.3688231760238,0.0],[172.70876,-43.375206,0.0],[172.70875339471735,-43.376635383167695,0.0],[172.70874466600003,-43.378451534999954,0.0],[172.70955486100002,-43.38115394099998,0.0],[172.70994384200003,-43.38625402599996,0.0],[172.7097349692227,-43.38685603697241,0.0],[172.709114,-43.387602,0.0],[172.705816,-43.388795,0.0],[172.7058160932516,-43.38879513867949,0.0],[172.70581568600005,-43.38879528599995,0.0],[172.7068275150001,-43.39029980099997,0.0],[172.7068278088461,-43.39029971572469,0.0],[172.706828,-43.3903,0.0],[172.70683262669064,-43.390298317567044,0.0],[172.70683893800003,-43.390296485999954,0.0],[172.70835112710537,-43.390742129029135,0.0],[172.70992,-43.391205,0.0],[172.71062369820046,-43.39185041381845,0.0],[172.71074103700005,-43.39195813499998,0.0],[172.71135386000003,-43.39285985699996,0.0],[172.71140085600007,-43.39360587899995,0.0],[172.71202491600002,-43.403510352999945,0.0],[172.7121196170001,-43.40501307499994,0.0],[172.71288873096643,-43.40786394792985,0.0],[172.71293,-43.408017,0.0],[172.71292917829263,-43.408209964279834,0.0],[172.71290583782945,-43.41365298577948,0.0],[172.646512,-43.407831,0.0],[172.573684,-43.480535,0.0],[172.521579,-43.544828,0.0],[172.442878,-43.524612,0.0],[172.298691,-43.487391,0.0],[172.11646,-43.420126,0.0],[171.977757,-43.320297,0.0],[171.929297,-43.279365,0.0],[172.301437,-43.043389,0.0],[172.370436,-43.083641,0.0],[172.425412,-43.109796,0.0],[172.448063,-43.122301,0.0],[172.473433,-43.127756,0.0],[172.724411,-43.265795,0.0],[172.72916669826105,-43.26821384652933,0.0],[172.7289614285607,-43.26935471994748,0.0]]]]}},{"type":"Feature","properties":{},"geometry":{"type":"MultiPolygon","coordinates":[[[[172.71290491800005,-43.41386749099996,0.0],[172.71349253000005,-43.42016960799998,0.0],[172.71430893700006,-43.42197189799998,0.0],[172.71409368800005,-43.423618472999976,0.0],[172.7136802340001,-43.42436906399996,0.0],[172.71426872100005,-43.43052262699996,0.0],[172.71444470300003,-43.436972234999985,0.0],[172.71525150700006,-43.440876135999986,0.0],[172.71522025800004,-43.44801669999998,0.0],[172.71521605500004,-43.448976810999966,0.0],[172.71577083400007,-43.451202498999976,0.0],[172.7162263040001,-43.453029654999966,0.0],[172.71642499100005,-43.45498721699994,0.0],[172.71662198900003,-43.45692801299998,0.0],[172.7168573890001,-43.45748865699994,0.0],[172.71927045600012,-43.46323514299996,0.0],[172.71986344000004,-43.46863702699994,0.0],[172.72148089600012,-43.47569309099998,0.0],[172.72270831600008,-43.47839628299994,0.0],[172.72432610500005,-43.48470076899997,0.0],[172.7286141410001,-43.49416173999998,0.0],[172.7292167270001,-43.49821346899995,0.0],[172.73288169400007,-43.50917132799998,0.0],[172.73348424200003,-43.51277299199995,0.0],[172.73573211100006,-43.517728559999966,0.0],[172.73736921300008,-43.52013103099995,0.0],[172.73818377100008,-43.52283308699998,0.0],[172.74247807100005,-43.531694828999946,0.0],[172.74349394600006,-43.53574738799995,0.0],[172.7461486850001,-43.54235513399993,0.0],[172.74810013400008,-43.54644640999993,0.0],[172.74901311000008,-43.54836029099994,0.0],[172.75147142900005,-43.55241583499998,0.0],[172.75229319400012,-43.55331767499996,0.0],[172.75234548100002,-43.55700282199996,0.0],[172.75213644100006,-43.55883462199995,0.0],[172.7514630610001,-43.55981738799994,0.0],[172.75037182100004,-43.56086198699995,0.0],[172.7491774020001,-43.56200933499997,0.0],[172.74811220800007,-43.562100886999986,0.0],[172.74624190500003,-43.560887553999976,0.0],[172.74606921400004,-43.560669194999946,0.0],[172.74566078500004,-43.56015274999993,0.0],[172.74570823600004,-43.55964899299994,0.0],[172.7466855990001,-43.55875002499994,0.0],[172.74609506700006,-43.556783407999944,0.0],[172.74610855100002,-43.55583314599994,0.0],[172.7464956120001,-43.55424166499995,0.0],[172.74715331800007,-43.55334945499993,0.0],[172.74712198100008,-43.552420790999975,0.0],[172.74589900500007,-43.549407592999955,0.0],[172.74424708800007,-43.547354963999965,0.0],[172.74360094200006,-43.54655203599998,0.0],[172.7422387570001,-43.54381980799997,0.0],[172.74219174600012,-43.540599724999936,0.0],[172.74182519900012,-43.539793902999975,0.0],[172.73523368400004,-43.537681808999935,0.0],[172.73359092500004,-43.53647644299997,0.0],[172.73343078100004,-43.53594690799997,0.0],[172.73231005600007,-43.53503252499996,0.0],[172.73193646900006,-43.534056059999955,0.0],[172.73065605600004,-43.533103025999935,0.0],[172.72969808900007,-43.53111573299998,0.0],[172.73001942500002,-43.53015863599995,0.0],[172.73151820900011,-43.529395878999935,0.0],[172.73125133200006,-43.52825275499998,0.0],[172.72909251400006,-43.527015319999975,0.0],[172.726001407,-43.52671096399996,0.0],[172.72456198200007,-43.525505952999936,0.0],[172.72498335500006,-43.52340535099995,0.0],[172.72291687400002,-43.524151883999934,0.0],[172.72228811200011,-43.526400603999946,0.0],[172.72351829600007,-43.52790212899998,0.0],[172.72578211300004,-43.52925767199997,0.0],[172.72557149400006,-43.53015722899994,0.0],[172.72433244,-43.53060427899993,0.0],[172.7235036730001,-43.53195236999994,0.0],[172.72348732600005,-43.53555257399995,0.0],[172.72181861400009,-43.53930180799995,0.0],[172.72160896200012,-43.540502937999975,0.0],[172.72015145600005,-43.54319955899996,0.0],[172.7174605360001,-43.545290137999984,0.0],[172.7170449570001,-43.54604071999995,0.0],[172.71579716000008,-43.54828777199998,0.0],[172.7135264640001,-43.54828210499994,0.0],[172.70609544100012,-43.549618012999986,0.0],[172.70464851100007,-43.55021285199996,0.0],[172.70352972500007,-43.551498917999936,0.0],[172.7038433020001,-43.55415129199997,0.0],[172.70674575800012,-43.55682536599994,0.0],[172.70886856100003,-43.55818285699996,0.0],[172.70941710700004,-43.558131042999946,0.0],[172.7100100880001,-43.55807502899995,0.0],[172.70990355900005,-43.55731819899995,0.0],[172.71047988400005,-43.55691104299996,0.0],[172.7158782670001,-43.55544639599998,0.0],[172.73118421800007,-43.55640921099996,0.0],[172.7341310270001,-43.55507735899994,0.0],[172.7368140100001,-43.55508356699994,0.0],[172.73763563600005,-43.55538694499995,0.0],[172.73887118200003,-43.55643827999995,0.0],[172.73927566300006,-43.55823931699996,0.0],[172.74000856700002,-43.55926806699995,0.0],[172.741738735,-43.561696505999976,0.0],[172.74193151100008,-43.56439710999996,0.0],[172.74234305400012,-43.56514955499995,0.0],[172.74323613,-43.565882375999934,0.0],[172.74434672600012,-43.566154755999946,0.0],[172.7468433890001,-43.566174444999945,0.0],[172.74815185500006,-43.56579428499998,0.0],[172.7500668990001,-43.56413014299994,0.0],[172.75060254100003,-43.56366465599996,0.0],[172.75447695200012,-43.56475098599998,0.0],[172.75656383000012,-43.565780366999945,0.0],[172.75958573900004,-43.566155497999944,0.0],[172.76099949100012,-43.56784961699998,0.0],[172.7622955800001,-43.56940264299993,0.0],[172.76541978500006,-43.571628715999964,0.0],[172.76777006200007,-43.57257335899993,0.0],[172.7700960400001,-43.57281113099998,0.0],[172.77180108900006,-43.57168983699995,0.0],[172.77389923200008,-43.57030993999996,0.0],[172.77617044600004,-43.569711250999944,0.0],[172.77678724700002,-43.57031102399998,0.0],[172.77802286400004,-43.57091640699997,0.0],[172.77760300900002,-43.57301268899994,0.0],[172.77779578500008,-43.573365818999946,0.0],[172.77842445800002,-43.574517405999984,0.0],[172.77780394700005,-43.57496622899998,0.0],[172.77759317400012,-43.575712832999955,0.0],[172.77862532200004,-43.57616486399996,0.0],[172.77841256700003,-43.57781602199998,0.0],[172.77985517700006,-43.578417284999944,0.0],[172.77923343400005,-43.57916760099994,0.0],[172.77920206400006,-43.57918853899997,0.0],[172.77883874500003,-43.57943103799994,0.0],[172.777030888,-43.58063765199995,0.0],[172.77654404200007,-43.580962573999955,0.0],[172.77638567600002,-43.58337975099994,0.0],[172.7763276510001,-43.58426528699994,0.0],[172.77714888000003,-43.584865364999985,0.0],[172.7821060220001,-43.584271763999936,0.0],[172.7845850220001,-43.58352944899997,0.0],[172.78499819900003,-43.58398016399997,0.0],[172.78458128400007,-43.58457794299994,0.0],[172.78457549600012,-43.586229499999945,0.0],[172.78519404700012,-43.58637920199993,0.0],[172.78746978900006,-43.585330272999954,0.0],[172.78932751500008,-43.58518517299996,0.0],[172.79470352200008,-43.58264324199996,0.0],[172.7960878680001,-43.58230983599998,0.0],[172.79780124900003,-43.58189715799995,0.0],[172.80090010100002,-43.58190250599995,0.0],[172.8009169810001,-43.58191023899997,0.0],[172.8025469060001,-43.58265687699998,0.0],[172.8056358660001,-43.58581226699994,0.0],[172.80749165800012,-43.58626534299998,0.0],[172.80851996100012,-43.58686554499997,0.0],[172.80853470500006,-43.58694108499998,0.0],[172.80872470500003,-43.58791447799996,0.0],[172.80769038500011,-43.58881279499997,0.0],[172.80757574500012,-43.58950456499997,0.0],[172.80726763500002,-43.59136370199997,0.0],[172.8062548910001,-43.592096406999985,0.0],[172.80602647900002,-43.59226165499996,0.0],[172.8035479680001,-43.59285598699995,0.0],[172.79693952500008,-43.593447595999976,0.0],[172.7952881230001,-43.59404321499994,0.0],[172.79466437500002,-43.59539217399998,0.0],[172.7894978270001,-43.59613446999998,0.0],[172.78785021600004,-43.59523146299995,0.0],[172.78495920300008,-43.59507761399993,0.0],[172.7822729500001,-43.59582413299995,0.0],[172.7820653870001,-43.59672378799996,0.0],[172.7808189750001,-43.59792294399995,0.0],[172.77565851400004,-43.59791311399994,0.0],[172.77441788200008,-43.59850914699996,0.0],[172.77235169000005,-43.59865817999997,0.0],[172.7693245480001,-43.59766586099994,0.0],[172.7663712970001,-43.59669765499996,0.0],[172.76223658800006,-43.59789084999994,0.0],[172.76099404400009,-43.59893675799998,0.0],[172.75934262900012,-43.59938340799994,0.0],[172.75707010600001,-43.59937869199996,0.0],[172.75377071900004,-43.598174685999936,0.0],[172.75211807000005,-43.59801807599996,0.0],[172.75087843100005,-43.59831695899993,0.0],[172.74632526300002,-43.60116022699998,0.0],[172.74106724500007,-43.603061158999935,0.0],[172.74171285900002,-43.603563055999984,0.0],[172.74171341600004,-43.604316369999935,0.0],[172.73968349400002,-43.60430645499997,0.0],[172.73826929200004,-43.604585638999936,0.0],[172.73614066800008,-43.60500582299994,0.0],[172.73382798800003,-43.60618228399994,0.0],[172.73294604800003,-43.607050657999935,0.0],[172.73296283500008,-43.608591529999956,0.0],[172.72380048600007,-43.60970503999994,0.0],[172.72367385600012,-43.60948777999994,0.0],[172.71992744900012,-43.609912571999985,0.0],[172.71783265400006,-43.60942327899994,0.0],[172.717926604,-43.60919494299998,0.0],[172.72049368900002,-43.60961517299995,0.0],[172.72387827900002,-43.60784391399994,0.0],[172.7236892100001,-43.60718277999996,0.0],[172.72242791600002,-43.605630789999964,0.0],[172.7216186820001,-43.60523398099997,0.0],[172.72159115600004,-43.60522059099998,0.0],[172.7205549360001,-43.605677628999956,0.0],[172.72013637700002,-43.605402125999944,0.0],[172.71995577000007,-43.60479951999997,0.0],[172.71951541800001,-43.60468600199994,0.0],[172.71898028300006,-43.60443442299993,0.0],[172.71863367000003,-43.60437784699997,0.0],[172.71820782100008,-43.60433268699995,0.0],[172.71771989600006,-43.604321579999976,0.0],[172.71705965400008,-43.60408237799993,0.0],[172.71653987800005,-43.60397936399994,0.0],[172.71584622300009,-43.60400293799995,0.0],[172.71392640200008,-43.60400445199997,0.0],[172.71154859500007,-43.60553498899998,0.0],[172.7115968180001,-43.60607056699996,0.0],[172.71166678600002,-43.60628161999995,0.0],[172.71170670800007,-43.60640203899993,0.0],[172.71556494000004,-43.60855730999998,0.0],[172.71572212600006,-43.60885378599994,0.0],[172.71224316300004,-43.61033928299997,0.0],[172.7102174360001,-43.61076160699997,0.0],[172.70603978700012,-43.611632431999965,0.0],[172.70451481200007,-43.61112446299995,0.0],[172.70353917400007,-43.61051806299997,0.0],[172.702091751,-43.610662838999986,0.0],[172.70126912600006,-43.60990918099998,0.0],[172.70086478400003,-43.608261064999965,0.0],[172.70045133600001,-43.607958494999934,0.0],[172.69983193600012,-43.60795687099994,0.0],[172.69879849100005,-43.60855271499997,0.0],[172.69714491500008,-43.608552937999946,0.0],[172.69571082200002,-43.60674903199998,0.0],[172.6930268200001,-43.60599043399998,0.0],[172.69158237800002,-43.606288122999956,0.0],[172.6905435530001,-43.60718536599995,0.0],[172.69033237700012,-43.608534867999936,0.0],[172.68929504800008,-43.609130704999984,0.0],[172.68764314100008,-43.609279242999946,0.0],[172.68640755100012,-43.608672885999965,0.0],[172.68207370300001,-43.60791399599998,0.0],[172.6800084680001,-43.607759785999974,0.0],[172.67897633200005,-43.60805396799998,0.0],[172.67814180300002,-43.609401694999974,0.0],[172.67565730600006,-43.61074483699997,0.0],[172.67337146700004,-43.613141577999954,0.0],[172.6723401170001,-43.613287163999985,0.0],[172.66696027700004,-43.61507639499996,0.0],[172.66322827200008,-43.617914232999965,0.0],[172.66239242300003,-43.61941037599996,0.0],[172.66156364000005,-43.61985803799996,0.0],[172.65945232100012,-43.62049038999993,0.0],[172.6585316820001,-43.62024161199997,0.0],[172.657865,-43.61974305299998,0.0],[172.65687457500007,-43.619584344999964,0.0],[172.65561448500011,-43.61993974699993,0.0],[172.65400005900005,-43.619955396999956,0.0],[172.65246704000003,-43.62148716399997,0.0],[172.6520502520001,-43.622232904999976,0.0],[172.65245342700007,-43.62388577699994,0.0],[172.65388993300007,-43.62554159999996,0.0],[172.65388564700004,-43.62628868499996,0.0],[172.6524354820001,-43.62703588399995,0.0],[172.65201863000004,-43.627786123999954,0.0],[172.65242012700003,-43.62973597399997,0.0],[172.6534428650001,-43.63184065499996,0.0],[172.65240473300003,-43.63288608499994,0.0],[172.64930005500003,-43.63362829099998,0.0],[172.64826182100012,-43.63467368299996,0.0],[172.64805053800012,-43.635424539999974,0.0],[172.6490774880001,-43.63677776399993,0.0],[172.64908792200004,-43.636917240999935,0.0],[172.64926899600005,-43.63947848399994,0.0],[172.65027548600006,-43.64009263999998,0.0],[172.65173901700007,-43.640984457999934,0.0],[172.65400978000002,-43.64113979999996,0.0],[172.65551407300006,-43.640852129999985,0.0],[172.65628409800001,-43.640153443999964,0.0],[172.6577164780001,-43.63963300199998,0.0],[172.6581467960001,-43.638655564999965,0.0],[172.6596067380001,-43.638006178999944,0.0],[172.66018981600007,-43.63725136599993,0.0],[172.66020806500012,-43.63669787199996,0.0],[172.6609153930001,-43.635985913999946,0.0],[172.661485555,-43.634411489999934,0.0],[172.66287356600003,-43.63396898999997,0.0],[172.6663298100001,-43.63155050299997,0.0],[172.66790669500006,-43.63127998699997,0.0],[172.668523756,-43.63173170999994,0.0],[172.66811014300004,-43.63378149199997,0.0],[172.667706134,-43.634491226999955,0.0],[172.66688423800008,-43.63504940499996,0.0],[172.66720818200008,-43.635865501999945,0.0],[172.66704698800004,-43.636436583999966,0.0],[172.66610810600002,-43.63719867699996,0.0],[172.6644425290001,-43.63752445299997,0.0],[172.6640821840001,-43.63790787999994,0.0],[172.66418845900012,-43.638870080999936,0.0],[172.66528800200012,-43.640334639999935,0.0],[172.66599976700002,-43.64057194999998,0.0],[172.6643419840001,-43.64117015399995,0.0],[172.66288572700012,-43.64296604699996,0.0],[172.659369641,-43.64385575699998,0.0],[172.6593579700001,-43.64595738299994,0.0],[172.66100260000007,-43.647312245999956,0.0],[172.6609985010001,-43.64805923899996,0.0],[172.65830127300012,-43.649855883999976,0.0],[172.65808922100007,-43.65120531399998,0.0],[172.65974064600005,-43.65135868699997,0.0],[172.6601525090001,-43.65195847099994,0.0],[172.65972898500002,-43.65346031099995,0.0],[172.66076063200012,-43.654061844999944,0.0],[172.66033375300003,-43.656612164999956,0.0],[172.65991426100004,-43.657358010999985,0.0],[172.65997747400002,-43.657373502999974,0.0],[172.660448566,-43.65748770099998,0.0],[172.6610749340001,-43.65655900099995,0.0],[172.66188964000003,-43.65617773899993,0.0],[172.66280292400006,-43.65528309599995,0.0],[172.66364931700002,-43.65511877899996,0.0],[172.66402390400003,-43.65926143799993,0.0],[172.66526930100008,-43.66082517399997,0.0],[172.66340475700008,-43.661719828999935,0.0],[172.6629907130001,-43.66216862999994,0.0],[172.66215507000004,-43.663516312999946,0.0],[172.66216400400003,-43.66509658599995,0.0],[172.66280149600004,-43.66441889699996,0.0],[172.66409392900005,-43.663044910999986,0.0],[172.66713481700003,-43.661521540999956,0.0],[172.66816562100007,-43.66053195499995,0.0],[172.66919996000001,-43.660233467999944,0.0],[172.66961360800008,-43.66053614899994,0.0],[172.66960877600002,-43.66143617599994,0.0],[172.66898316900006,-43.66248294299993,0.0],[172.6700001994726,-43.662949786213645,0.0],[172.669944,-43.663239,0.0],[172.626798,-43.699929,0.0],[172.653896,-43.745325,0.0],[172.675016,-43.768019,0.0],[172.697522,-43.778809,0.0],[172.719506,-43.775841,0.0],[172.750407,-43.766917,0.0],[172.769285,-43.757244,0.0],[172.78816,-43.755503,0.0],[172.803946,-43.765172,0.0],[172.820082,-43.774964,0.0],[172.82884,-43.786304,0.0],[172.827985,-43.796654,0.0],[172.814278,-43.805584,0.0],[172.74021882473778,-43.83311934320354,0.0],[172.7402279370001,-43.83095460299995,0.0],[172.73939938500007,-43.83050279899993,0.0],[172.73773329100004,-43.832902055999966,0.0],[172.73357670400003,-43.835291187999985,0.0],[172.73274924700002,-43.83544228799997,0.0],[172.73192137400008,-43.83483739999997,0.0],[172.73089041700007,-43.833188072999974,0.0],[172.7288212640001,-43.832431880999934,0.0],[172.72806158600008,-43.831972475999976,0.0],[172.72758132800004,-43.831682039999976,0.0],[172.7273765120001,-43.830781627999954,0.0],[172.72945669800004,-43.82928342699995,0.0],[172.73008223400007,-43.828384891999974,0.0],[172.73029510800006,-43.82718390499997,0.0],[172.7302342580001,-43.827169357999935,0.0],[172.729674218,-43.827033994999965,0.0],[172.72697241800006,-43.82882769199995,0.0],[172.72406488700005,-43.829873935999956,0.0],[172.72199131900004,-43.82986909099998,0.0],[172.7211680150001,-43.829115602999934,0.0],[172.71726625700012,-43.82779947499995,0.0],[172.71084303700002,-43.82733555699997,0.0],[172.69393134200004,-43.82777987199995,0.0],[172.67085598000006,-43.82916469799994,0.0],[172.62912371700008,-43.83081053999996,0.0],[172.59884045,-43.83278447299995,0.0],[172.58931574300004,-43.833403627999985,0.0],[172.53966045100003,-43.839920474999985,0.0],[172.51225096300004,-43.84313820899996,0.0],[172.49042484100005,-43.84548086899997,0.0],[172.46698890000005,-43.84736950699994,0.0],[172.44148039900006,-43.84911576099995,0.0],[172.42678580200004,-43.85052993299996,0.0],[172.39795660200002,-43.853914302999954,0.0],[172.38096540300012,-43.856226669999955,0.0],[172.3775113480001,-43.85671732399993,0.0],[172.37556290100008,-43.857250947999944,0.0],[172.37328152600003,-43.85738716999998,0.0],[172.35375418400008,-43.860583539999936,0.0],[172.3406591690001,-43.86336322999995,0.0],[172.32487153300008,-43.86552736699997,0.0],[172.30357943,-43.870481680999944,0.0],[172.29970851200005,-43.87138197499996,0.0],[172.28701683100007,-43.87537487499998,0.0],[172.28472074600006,-43.87609703199996,0.0],[172.27263948600012,-43.88022535199997,0.0],[172.266117064,-43.88194755999996,0.0],[172.26597969300008,-43.881983584999944,0.0],[172.26431317100003,-43.882423048999954,0.0],[172.2526442310001,-43.88670043299993,0.0],[172.22847701400008,-43.89449913699997,0.0],[172.21973512700004,-43.89774390599996,0.0],[172.21534548900001,-43.899064555999985,0.0],[172.21493225900008,-43.89906180799994,0.0],[172.21369541700005,-43.89845486399997,0.0],[172.219529189,-43.89654110599997,0.0],[172.22245196100005,-43.89506204999998,0.0],[172.22411538400002,-43.89492014599995,0.0],[172.22787001900008,-43.893293565999954,0.0],[172.22621291500002,-43.89313400599997,0.0],[172.22204517000011,-43.89445633999998,0.0],[172.21726654600002,-43.894878748999986,0.0],[172.21228695872708,-43.897483124827794,0.0],[172.21117,-43.89594,0.0],[172.205281,-43.889539,0.0],[172.204455,-43.888936,0.0],[172.202899,-43.887622,0.0],[172.20056,-43.885859,0.0],[172.197975,-43.884668,0.0],[172.195481,-43.882805,0.0],[172.193245,-43.880756,0.0],[172.190645,-43.878428,0.0],[172.187187,-43.876101,0.0],[172.186393,-43.874454,0.0],[172.185052,-43.873506,0.0],[172.184812,-43.8726,0.0],[172.18186,-43.870352,0.0],[172.176007,-43.866691,0.0],[172.175915,-43.865232,0.0],[172.170806,-43.861099,0.0],[172.167309,-43.858909,0.0],[172.166162,-43.855895,0.0],[172.164731,-43.853955,0.0],[172.16187,-43.85119,0.0],[172.157866,-43.846836,0.0],[172.154492,-43.842864,0.0],[172.152204,-43.841807,0.0],[172.151662,-43.841092,0.0],[172.149588,-43.840797,0.0],[172.145977,-43.83972,0.0],[172.144172,-43.837015,0.0],[172.131854,-43.831205,0.0],[172.128614,-43.826875,0.0],[172.12605,-43.824524,0.0],[172.123744,-43.822606,0.0],[172.119221,-43.819598,0.0],[172.118078,-43.815122,0.0],[172.113816,-43.806753,0.0],[172.113234,-43.804427,0.0],[172.11157,-43.800911,0.0],[172.108078,-43.797419,0.0],[172.102728,-43.795177,0.0],[172.098424,-43.7904,0.0],[172.097389,-43.78826,0.0],[172.09404,-43.784278,0.0],[172.09125,-43.78334,0.0],[172.088311,-43.780083,0.0],[172.087529,-43.777277,0.0],[172.084391,-43.775068,0.0],[172.08351,-43.773716,0.0],[172.081524,-43.770498,0.0],[172.079073,-43.768146,0.0],[172.079049,-43.767094,0.0],[172.07732,-43.765824,0.0],[172.07474,-43.765313,0.0],[172.07036,-43.762082,0.0],[172.070573,-43.756623,0.0],[172.066389,-43.753831,0.0],[172.064092,-43.753023,0.0],[172.061678,-43.752282,0.0],[172.057982,-43.751664,0.0],[172.05399,-43.749804,0.0],[172.048561,-43.749246,0.0],[172.04765,-43.748098,0.0],[172.047452,-43.74678,0.0],[172.046582,-43.743827,0.0],[172.043915,-43.741173,0.0],[172.042068,-43.738791,0.0],[172.039858,-43.738096,0.0],[172.038066,-43.737997,0.0],[172.034338,-43.736645,0.0],[172.031702,-43.733488,0.0],[172.029613,-43.732653,0.0],[172.027366,-43.730313,0.0],[172.026759,-43.729639,0.0],[172.024052,-43.728868,0.0],[172.02287,-43.726994,0.0],[172.020821,-43.725933,0.0],[172.015848,-43.722176,0.0],[172.01259,-43.719243,0.0],[172.00727,-43.717218,0.0],[172.005297,-43.716888,0.0],[172.003023,-43.716413,0.0],[172.002315,-43.715617,0.0],[171.997927,-43.713171,0.0],[171.995304,-43.712072,0.0],[171.989591,-43.711966,0.0],[171.986229,-43.711604,0.0],[171.982746,-43.710802,0.0],[171.978344,-43.710959,0.0],[171.973312,-43.709113,0.0],[171.970539,-43.706886,0.0],[171.966493,-43.705276,0.0],[171.964085,-43.704005,0.0],[171.962559,-43.702928,0.0],[171.961496,-43.702607,0.0],[171.96045,-43.702694,0.0],[171.95894,-43.702862,0.0],[171.957927,-43.70245,0.0],[171.957335,-43.702119,0.0],[171.956266,-43.700806,0.0],[171.95526,-43.700087,0.0],[171.954114,-43.699728,0.0],[171.952811,-43.699362,0.0],[171.951215,-43.69921,0.0],[171.949774,-43.699041,0.0],[171.947938,-43.698522,0.0],[171.946848,-43.697828,0.0],[171.945316,-43.697233,0.0],[171.943992,-43.696408,0.0],[171.942729,-43.69584,0.0],[171.940854,-43.695432,0.0],[171.9391,-43.694483,0.0],[171.937237,-43.693636,0.0],[171.934202,-43.691692,0.0],[171.928522,-43.689603,0.0],[171.923228,-43.687669,0.0],[171.920831,-43.687005,0.0],[171.919118,-43.685928,0.0],[171.917403,-43.684583,0.0],[171.915559,-43.684252,0.0],[171.913607,-43.683124,0.0],[171.91246,-43.68287,0.0],[171.911757,-43.682805,0.0],[171.910891,-43.682183,0.0],[171.9096,-43.681515,0.0],[171.907388,-43.68101,0.0],[171.906818,-43.680649,0.0],[171.906834,-43.680204,0.0],[171.906542,-43.679734,0.0],[171.905129,-43.679018,0.0],[171.90423,-43.678427,0.0],[171.903759,-43.677759,0.0],[171.903417,-43.676866,0.0],[171.902795,-43.675799,0.0],[171.902376,-43.675063,0.0],[171.90206,-43.674851,0.0],[171.901005,-43.674635,0.0],[171.899992,-43.674294,0.0],[171.899066,-43.673954,0.0],[171.898066,-43.673365,0.0],[171.897147,-43.673536,0.0],[171.896272,-43.673116,0.0],[172.047956,-43.615975,0.0],[172.278669,-43.567238,0.0],[172.520892,-43.544828,0.0],[172.572997,-43.480535,0.0],[172.645825,-43.407831,0.0],[172.71291852461528,-43.410694413472505,0.0],[172.71290491800005,-43.41386749099996,0.0]]]]}},{"type":"Feature","properties":{},"geometry":{"type":"MultiPolygon","coordinates":[[[[172.7291324435646,-43.26840423153285,0.0],[172.728759,-43.270478,0.0],[172.72839466779183,-43.27124257839883,0.0],[172.72791667900003,-43.27224495699994,0.0],[172.72723864357835,-43.27366673807298,0.0],[172.726686,-43.274825,0.0],[172.72647,-43.276773,0.0],[172.72587190764463,-43.277929215575874,0.0],[172.72522762100004,-43.27917354899995,0.0],[172.72379773500006,-43.279912612999965,0.0],[172.72313660070563,-43.28195311328237,0.0],[172.72297,-43.282467,0.0],[172.72261863320304,-43.28360936238532,0.0],[172.72255208800004,-43.28382565299995,0.0],[172.72242065842593,-43.28426821723781,0.0],[172.721391,-43.287735,0.0],[172.719616,-43.29371,0.0],[172.71942057937966,-43.294963291389486,0.0],[172.71919463500012,-43.296409696999945,0.0],[172.71759701857985,-43.30049044348569,0.0],[172.716494,-43.303307,0.0],[172.7159052452423,-43.307465253775234,0.0],[172.71585697400008,-43.30780598999996,0.0],[172.71565982900006,-43.30844352999998,0.0],[172.71522869763203,-43.30983765855211,0.0],[172.714605,-43.311853,0.0],[172.713761,-43.316203,0.0],[172.713329,-43.321004,0.0],[172.71229,-43.323549,0.0],[172.711749,-43.326057,0.0],[172.711449,-43.327449,0.0],[172.711117,-43.331187,0.0],[172.7110825703372,-43.33157720284511,0.0],[172.71106888000008,-43.33173126699995,0.0],[172.71058291200006,-43.33719959199993,0.0],[172.71017635478563,-43.338294814038704,0.0],[172.710089,-43.33853,0.0],[172.709748,-43.339448,0.0],[172.708903,-43.344698,0.0],[172.70892019173564,-43.34554223701885,0.0],[172.7090706670001,-43.35294778999997,0.0],[172.70777865500008,-43.36509595999996,0.0],[172.70834974700006,-43.366954851999935,0.0],[172.7087929800001,-43.368397485999935,0.0],[172.70879093452652,-43.3688231760238,0.0],[172.70876,-43.375206,0.0],[172.70875339471735,-43.376635383167695,0.0],[172.70874466600003,-43.378451534999954,0.0],[172.70955486100002,-43.38115394099998,0.0],[172.70994384200003,-43.38625402599996,0.0],[172.7097349692227,-43.38685603697241,0.0],[172.709114,-43.387602,0.0],[172.705816,-43.388795,0.0],[172.7058160932516,-43.38879513867949,0.0],[172.70581568600005,-43.38879528599995,0.0],[172.7068275150001,-43.39029980099997,0.0],[172.7068278088461,-43.39029971572469,0.0],[172.706828,-43.3903,0.0],[172.70683262669064,-43.390298317567044,0.0],[172.70683893800003,-43.390296485999954,0.0],[172.70835112710537,-43.390742129029135,0.0],[172.70992,-43.391205,0.0],[172.71062369820046,-43.39185041381845,0.0],[172.71074103700005,-43.39195813499998,0.0],[172.71135386000003,-43.39285985699996,0.0],[172.71140085600007,-43.39360587899995,0.0],[172.71202491600002,-43.403510352999945,0.0],[172.7121196170001,-43.40501307499994,0.0],[172.71288873096643,-43.40786394792985,0.0],[172.71293,-43.408017,0.0],[172.7129283211777,-43.40840984441566,0.0],[172.71290491800005,-43.41386749099996,0.0],[172.71349253000005,-43.42016960799998,0.0],[172.71430893700006,-43.42197189799998,0.0],[172.71409368800005,-43.423618472999976,0.0],[172.71402757870752,-43.42373848886629,0.0],[172.71368,-43.424369,0.0],[172.7139648444835,-43.42734511706531,0.0],[172.71426872100005,-43.43052262699996,0.0],[172.71444470300003,-43.436972234999985,0.0],[172.71525150700006,-43.440876135999986,0.0],[172.71523096526244,-43.445570033152464,0.0],[172.71522,-43.448017,0.0],[172.715216,-43.448977,0.0],[172.71536038850488,-43.44955585481683,0.0],[172.71577083400007,-43.451202498999976,0.0],[172.7159651932836,-43.45198218752182,0.0],[172.716226,-43.45303,0.0],[172.7164083155498,-43.454822922266246,0.0],[172.71642499100005,-43.45498721699994,0.0],[172.71662198900003,-43.45692801299998,0.0],[172.71662903890933,-43.45694480352398,0.0],[172.716857,-43.457489,0.0],[172.71927,-43.463235,0.0],[172.719863,-43.468637,0.0],[172.72111938607094,-43.47411602355776,0.0],[172.72148089600012,-43.47569309099998,0.0],[172.72201674688074,-43.47687321501108,0.0],[172.722708,-43.478396,0.0],[172.724326,-43.484701,0.0],[172.728614,-43.494162,0.0],[172.72882138113025,-43.49555520225319,0.0],[172.7292167270001,-43.49821346899995,0.0],[172.73288169400007,-43.50917132799998,0.0],[172.73338994203158,-43.512209324372414,0.0],[172.733481,-43.512754,0.0],[172.72413831751263,-43.52371062763718,0.0],[172.72291687400002,-43.524151883999934,0.0],[172.72250455086612,-43.525626526675204,0.0],[172.673422,-43.583183,0.0],[172.1770406,-43.6683752,0.0],[172.0960579,-43.6051612,0.0],[171.9169156,-43.4653314,0.0],[172.057071,-43.359728,0.0],[172.171372,-43.226058,0.0],[172.329422,-43.171227,0.0],[172.48066,-43.131748,0.0],[172.724411,-43.265795,0.0],[172.7292109369161,-43.26796797144141,0.0],[172.7291324435646,-43.26840423153285,0.0]]],[[[172.473433,-43.127756,0.0],[172.48442,-43.130763,0.0],[172.48066,-43.131748,0.0],[172.473433,-43.127756,0.0]]]]}}]}