{"type":"FeatureCollection","features":[{"type":"Feature","properties":{},"geometry":{"type":"MultiPolygon","coordinates":[[[[172.71290491800005,-43.41386749099996,0.0],[172.71349253000005,-43.42016960799998,0.0],[172.71430893700006,-43.42197189799998,0.0],[172.71409368800005,-43.423618472999976,0.0],[172.7136802340001,-43.42436906399996,0.0],[172.71426872100005,-43.43052262699996,0.0],[172.71444470300003,-43.436972234999985,0.0],[172.71525150700006,-43.440876135999986,0.0],[172.71522025800004,-43.44801669999998,0.0],[172.71521605500004,-43.448976810999966,0.0],[172.71577083400007,-43.451202498999976,0.0],[172.7162263040001,-43.453029654999966,0.0],[172.71642499100005,-43.45498721699994,0.0],[172.71662198900003,-43.45692801299998,0.0],[172.7168573890001,-43.45748865699994,0.0],[172.71927045600012,-43.46323514299996,0.0],[172.71986344000004,-43.46863702699994,0.0],[172.72148089600012,-43.47569309099998,0.0],[172.72270831600008,-43.47839628299994,0.0],[172.72432610500005,-43.48470076899997,0.0],[172.7286141410001,-43.49416173999998,0.0],[172.7292167270001,-43.49821346899995,0.0],[172.73288169400007,-43.50917132799998,0.0],[172.73348424200003,-43.51277299199995,0.0],[172.73573211100006,-43.517728559999966,0.0],[172.73736921300008,-43.52013103099995,0.0],[172.73818377100008,-43.52283308699998,0.0],[172.74247807100005,-43.531694828999946,0.0],[172.74349394600006,-43.53574738799995,0.0],[172.7461486850001,-43.54235513399993,0.0],[172.74810013400008,-43.54644640999993,0.0],[172.74901311000008,-43.54836029099994,0.0],[172.75147142900005,-43.55241583499998,0.0],[172.75229319400012,-43.55331767499996,0.0],[172.75234548100002,-43.55700282199996,0.0],[172.75213644100006,-43.55883462199995,0.0],[172.7514630610001,-43.55981738799994,0.0],[172.75037182100004,-43.56086198699995,0.0],[172.7491774020001,-43.56200933499997,0.0],[172.74811220800007,-43.562100886999986,0.0],[172.74624190500003,-43.560887553999976,0.0],[172.74606921400004,-43.560669194999946,0.0],[172.74566078500004,-43.56015274999993,0.0],[172.74570823600004,-43.55964899299994,0.0],[172.7466855990001,-43.55875002499994,0.0],[172.74609506700006,-43.556783407999944,0.0],[172.74610855100002,-43.55583314599994,0.0],[172.7464956120001,-43.55424166499995,0.0],[172.74715331800007,-43.55334945499993,0.0],[172.74712198100008,-43.552420790999975,0.0],[172.74589900500007,-43.549407592999955,0.0],[172.74424708800007,-43.547354963999965,0.0],[172.74360094200006,-43.54655203599998,0.0],[172.7422387570001,-43.54381980799997,0.0],[172.74219174600012,-43.540599724999936,0.0],[172.74182519900012,-43.539793902999975,0.0],[172.73523368400004,-43.537681808999935,0.0],[172.73359092500004,-43.53647644299997,0.0],[172.73343078100004,-43.53594690799997,0.0],[172.73231005600007,-43.53503252499996,0.0],[172.73193646900006,-43.534056059999955,0.0],[172.73065605600004,-43.533103025999935,0.0],[172.72969808900007,-43.53111573299998,0.0],[172.73001942500002,-43.53015863599995,0.0],[172.73151820900011,-43.529395878999935,0.0],[172.73125133200006,-43.52825275499998,0.0],[172.72909251400006,-43.527015319999975,0.0],[172.726001407,-43.52671096399996,0.0],[172.72456198200007,-43.525505952999936,0.0],[172.72498335500006,-43.52340535099995,0.0],[172.72291687400002,-43.524151883999934,0.0],[172.72228811200011,-43.526400603999946,0.0],[172.72351829600007,-43.52790212899998,0.0],[172.72578211300004,-43.52925767199997,0.0],[172.72557149400006,-43.53015722899994,0.0],[172.72433244,-43.53060427899993,0.0],[172.7235036730001,-43.53195236999994,0.0],[172.72348732600005,-43.53555257399995,0.0],[172.72181861400009,-43.53930180799995,0.0],[172.72160896200012,-43.540502937999975,0.0],[172.72015145600005,-43.54319955899996,0.0],[172.7174605360001,-43.545290137999984,0.0],[172.7170449570001,-43.54604071999995,0.0],[172.71579716000008,-43.54828777199998,0.0],[172.7135264640001,-43.54828210499994,0.0],[172.70609544100012,-43.549618012999986,0.0],[172.70464851100007,-43.55021285199996,0.0],[172.70352972500007,-43.551498917999936,0.0],[172.7038433020001,-43.55415129199997,0.0],[172.70674575800012,-43.55682536599994,0.0],[172.70886856100003,-43.55818285699996,0.0],[172.70941710700004,-43.558131042999946,0.0],[172.7100100880001,-43.55807502899995,0.0],[172.70990355900005,-43.55731819899995,0.0],[172.71047988400005,-43.55691104299996,0.0],[172.7158782670001,-43.55544639599998,0.0],[172.73118421800007,-43.55640921099996,0.0],[172.7341310270001,-43.55507735899994,0.0],[172.7368140100001,-43.55508356699994,0.0],[172.73763563600005,-43.55538694499995,0.0],[172.73887118200003,-43.55643827999995,0.0],[172.73927566300006,-43.55823931699996,0.0],[172.74000856700002,-43.55926806699995,0.0],[172.741738735,-43.561696505999976,0.0],[172.74193151100008,-43.56439710999996,0.0],[172.74234305400012,-43.56514955499995,0.0],[172.74323613,-43.565882375999934,0.0],[172.74434672600012,-43.566154755999946,0.0],[172.7468433890001,-43.566174444999945,0.0],[172.74815185500006,-43.56579428499998,0.0],[172.7500668990001,-43.56413014299994,0.0],[172.75060254100003,-43.56366465599996,0.0],[172.75447695200012,-43.56475098599998,0.0],[172.75656383000012,-43.565780366999945,0.0],[172.75958573900004,-43.566155497999944,0.0],[172.76099949100012,-43.56784961699998,0.0],[172.7622955800001,-43.56940264299993,0.0],[172.76541978500006,-43.571628715999964,0.0],[172.76777006200007,-43.57257335899993,0.0],[172.7700960400001,-43.57281113099998,0.0],[172.77180108900006,-43.57168983699995,0.0],[172.77389923200008,-43.57030993999996,0.0],[172.77617044600004,-43.569711250999944,0.0],[172.77678724700002,-43.57031102399998,0.0],[172.77802286400004,-43.57091640699997,0.0],[172.77760300900002,-43.57301268899994,0.0],[172.77779578500008,-43.573365818999946,0.0],[172.77842445800002,-43.574517405999984,0.0],[172.77780394700005,-43.57496622899998,0.0],[172.77759317400012,-43.575712832999955,0.0],[172.77862532200004,-43.57616486399996,0.0],[172.77841256700003,-43.57781602199998,0.0],[172.77985517700006,-43.578417284999944,0.0],[172.77923343400005,-43.57916760099994,0.0],[172.77920206400006,-43.57918853899997,0.0],[172.77883874500003,-43.57943103799994,0.0],[172.777030888,-43.58063765199995,0.0],[172.77654404200007,-43.580962573999955,0.0],[172.77638567600002,-43.58337975099994,0.0],[172.7763276510001,-43.58426528699994,0.0],[172.77714888000003,-43.584865364999985,0.0],[172.7821060220001,-43.584271763999936,0.0],[172.7845850220001,-43.58352944899997,0.0],[172.78499819900003,-43.58398016399997,0.0],[172.78458128400007,-43.58457794299994,0.0],[172.78457549600012,-43.586229499999945,0.0],[172.78519404700012,-43.58637920199993,0.0],[172.78746978900006,-43.585330272999954,0.0],[172.78932751500008,-43.58518517299996,0.0],[172.79470352200008,-43.58264324199996,0.0],[172.7960878680001,-43.58230983599998,0.0],[172.79780124900003,-43.58189715799995,0.0],[172.80090010100002,-43.58190250599995,0.0],[172.8009169810001,-43.58191023899997,0.0],[172.8025469060001,-43.58265687699998,0.0],[172.8056358660001,-43.58581226699994,0.0],[172.80749165800012,-43.58626534299998,0.0],[172.80851996100012,-43.58686554499997,0.0],[172.80853470500006,-43.58694108499998,0.0],[172.80872470500003,-43.58791447799996,0.0],[172.80769038500011,-43.58881279499997,0.0],[172.80757574500012,-43.58950456499997,0.0],[172.80726763500002,-43.59136370199997,0.0],[172.8062548910001,-43.592096406999985,0.0],[172.80602647900002,-43.59226165499996,0.0],[172.8035479680001,-43.59285598699995,0.0],[172.79693952500008,-43.593447595999976,0.0],[172.7952881230001,-43.59404321499994,0.0],[172.79466437500002,-43.59539217399998,0.0],[172.7894978270001,-43.59613446999998,0.0],[172.78785021600004,-43.59523146299995,0.0],[172.78495920300008,-43.59507761399993,0.0],[172.7822729500001,-43.59582413299995,0.0],[172.7820653870001,-43.59672378799996,0.0],[172.7808189750001,-43.59792294399995,0.0],[172.77565851400004,-43.59791311399994,0.0],[172.77441788200008,-43.59850914699996,0.0],[172.77235169000005,-43.59865817999997,0.0],[172.7693245480001,-43.59766586099994,0.0],[172.7663712970001,-43.59669765499996,0.0],[172.76223658800006,-43.59789084999994,0.0],[172.76099404400009,-43.59893675799998,0.0],[172.75934262900012,-43.59938340799994,0.0],[172.75707010600001,-43.59937869199996,0.0],[172.75377071900004,-43.598174685999936,0.0],[172.75211807000005,-43.59801807599996,0.0],[172.75087843100005,-43.59831695899993,0.0],[172.74632526300002,-43.60116022699998,0.0],[172.74106724500007,-43.603061158999935,0.0],[172.74171285900002,-43.603563055999984,0.0],[172.74171341600004,-43.604316369999935,0.0],[172.73968349400002,-43.60430645499997,0.0],[172.73826929200004,-43.604585638999936,0.0],[172.73614066800008,-43.60500582299994,0.0],[172.73382798800003,-43.60618228399994,0.0],[172.73294604800003,-43.607050657999935,0.0],[172.73296283500008,-43.608591529999956,0.0],[172.72380048600007,-43.60970503999994,0.0],[172.72367385600012,-43.60948777999994,0.0],[172.71992744900012,-43.609912571999985,0.0],[172.71783265400006,-43.60942327899994,0.0],[172.717926604,-43.60919494299998,0.0],[172.72049368900002,-43.60961517299995,0.0],[172.72387827900002,-43.60784391399994,0.0],[172.7236892100001,-43.60718277999996,0.0],[172.72242791600002,-43.605630789999964,0.0],[172.7216186820001,-43.60523398099997,0.0],[172.72159115600004,-43.60522059099998,0.0],[172.7205549360001,-43.605677628999956,0.0],[172.72013637700002,-43.605402125999944,0.0],[172.71995577000007,-43.60479951999997,0.0],[172.71951541800001,-43.60468600199994,0.0],[172.71898028300006,-43.60443442299993,0.0],[172.71863367000003,-43.60437784699997,0.0],[172.71820782100008,-43.60433268699995,0.0],[172.71771989600006,-43.604321579999976,0.0],[172.71705965400008,-43.60408237799993,0.0],[172.71653987800005,-43.60397936399994,0.0],[172.71584622300009,-43.60400293799995,0.0],[172.71392640200008,-43.60400445199997,0.0],[172.71154859500007,-43.60553498899998,0.0],[172.7115968180001,-43.60607056699996,0.0],[172.71166678600002,-43.60628161999995,0.0],[172.71170670800007,-43.60640203899993,0.0],[172.71556494000004,-43.60855730999998,0.0],[172.71572212600006,-43.60885378599994,0.0],[172.71224316300004,-43.61033928299997,0.0],[172.7102174360001,-43.61076160699997,0.0],[172.70603978700012,-43.611632431999965,0.0],[172.70451481200007,-43.61112446299995,0.0],[172.70353917400007,-43.61051806299997,0.0],[172.702091751,-43.610662838999986,0.0],[172.70126912600006,-43.60990918099998,0.0],[172.70086478400003,-43.608261064999965,0.0],[172.70045133600001,-43.607958494999934,0.0],[172.69983193600012,-43.60795687099994,0.0],[172.69879849100005,-43.60855271499997,0.0],[172.69714491500008,-43.608552937999946,0.0],[172.69571082200002,-43.60674903199998,0.0],[172.6930268200001,-43.60599043399998,0.0],[172.69158237800002,-43.606288122999956,0.0],[172.6905435530001,-43.60718536599995,0.0],[172.69033237700012,-43.608534867999936,0.0],[172.68929504800008,-43.609130704999984,0.0],[172.68764314100008,-43.609279242999946,0.0],[172.68640755100012,-43.608672885999965,0.0],[172.68207370300001,-43.60791399599998,0.0],[172.6800084680001,-43.607759785999974,0.0],[172.67897633200005,-43.60805396799998,0.0],[172.67814180300002,-43.609401694999974,0.0],[172.67565730600006,-43.61074483699997,0.0],[172.67337146700004,-43.613141577999954,0.0],[172.6723401170001,-43.613287163999985,0.0],[172.66696027700004,-43.61507639499996,0.0],[172.66322827200008,-43.617914232999965,0.0],[172.66239242300003,-43.61941037599996,0.0],[172.66156364000005,-43.61985803799996,0.0],[172.65945232100012,-43.62049038999993,0.0],[172.6585316820001,-43.62024161199997,0.0],[172.657865,-43.61974305299998,0.0],[172.65687457500007,-43.619584344999964,0.0],[172.65561448500011,-43.61993974699993,0.0],[172.65400005900005,-43.619955396999956,0.0],[172.65246704000003,-43.62148716399997,0.0],[172.6520502520001,-43.622232904999976,0.0],[172.65245342700007,-43.62388577699994,0.0],[172.65388993300007,-43.62554159999996,0.0],[172.65388564700004,-43.62628868499996,0.0],[172.6524354820001,-43.62703588399995,0.0],[172.65201863000004,-43.627786123999954,0.0],[172.65242012700003,-43.62973597399997,0.0],[172.6534428650001,-43.63184065499996,0.0],[172.65240473300003,-43.63288608499994,0.0],[172.64930005500003,-43.63362829099998,0.0],[172.64826182100012,-43.63467368299996,0.0],[172.64805053800012,-43.635424539999974,0.0],[172.6490774880001,-43.63677776399993,0.0],[172.64908792200004,-43.636917240999935,0.0],[172.64926899600005,-43.63947848399994,0.0],[172.65027548600006,-43.64009263999998,0.0],[172.65173901700007,-43.640984457999934,0.0],[172.65400978000002,-43.64113979999996,0.0],[172.65551407300006,-43.640852129999985,0.0],[172.65628409800001,-43.640153443999964,0.0],[172.6577164780001,-43.63963300199998,0.0],[172.6581467960001,-43.638655564999965,0.0],[172.6596067380001,-43.638006178999944,0.0],[172.66018981600007,-43.63725136599993,0.0],[172.66020806500012,-43.63669787199996,0.0],[172.6609153930001,-43.635985913999946,0.0],[172.661485555,-43.634411489999934,0.0],[172.66287356600003,-43.63396898999997,0.0],[172.6663298100001,-43.63155050299997,0.0],[172.66790669500006,-43.63127998699997,0.0],[172.668523756,-43.63173170999994,0.0],[172.66811014300004,-43.63378149199997,0.0],[172.667706134,-43.634491226999955,0.0],[172.66688423800008,-43.63504940499996,0.0],[172.66720818200008,-43.635865501999945,0.0],[172.66704698800004,-43.636436583999966,0.0],[172.66610810600002,-43.63719867699996,0.0],[172.6644425290001,-43.63752445299997,0.0],[172.6640821840001,-43.63790787999994,0.0],[172.66418845900012,-43.638870080999936,0.0],[172.66528800200012,-43.640334639999935,0.0],[172.66599976700002,-43.64057194999998,0.0],[172.6643419840001,-43.64117015399995,0.0],[172.66288572700012,-43.64296604699996,0.0],[172.659369641,-43.64385575699998,0.0],[172.6593579700001,-43.64595738299994,0.0],[172.66100260000007,-43.647312245999956,0.0],[172.6609985010001,-43.64805923899996,0.0],[172.65830127300012,-43.649855883999976,0.0],[172.65808922100007,-43.65120531399998,0.0],[172.65974064600005,-43.65135868699997,0.0],[172.6601525090001,-43.65195847099994,0.0],[172.65972898500002,-43.65346031099995,0.0],[172.66076063200012,-43.654061844999944,0.0],[172.66033375300003,-43.656612164999956,0.0],[172.65991426100004,-43.657358010999985,0.0],[172.65997747400002,-43.657373502999974,0.0],[172.660448566,-43.65748770099998,0.0],[172.6610749340001,-43.65655900099995,0.0],[172.66188964000003,-43.65617773899993,0.0],[172.66280292400006,-43.65528309599995,0.0],[172.66364931700002,-43.65511877899996,0.0],[172.66402390400003,-43.65926143799993,0.0],[172.66526930100008,-43.66082517399997,0.0],[172.66340475700008,-43.661719828999935,0.0],[172.6629907130001,-43.66216862999994,0.0],[172.66215507000004,-43.663516312999946,0.0],[172.66216400400003,-43.66509658599995,0.0],[172.66280149600004,-43.66441889699996,0.0],[172.66409392900005,-43.663044910999986,0.0],[172.66713481700003,-43.661521540999956,0.0],[172.66816562100007,-43.66053195499995,0.0],[172.66919996000001,-43.660233467999944,0.0],[172.66961360800008,-43.66053614899994,0.0],[172.66960877600002,-43.66143617599994,0.0],[172.66898316900006,-43.66248294299993,0.0],[172.6700001994726,-43.662949786213645,0.0],[172.669944,-43.663239,0.0],[172.626798,-43.699929,0.0],[172.653896,-43.745325,0.0],[172.675016,-43.768019,0.0],[172.697522,-43.778809,0.0],[172.719506,-43.775841,0.0],[172.750407,-43.766917,0.0],[172.769285,-43.757244,0.0],[172.78816,-43.755503,0.0],[172.803946,-43.765172,0.0],[172.820082,-43.774964,0.0],[172.82884,-43.786304,0.0],[172.827985,-43.796654,0.0],[172.814278,-43.805584,0.0],[172.74021882473778,-43.83311934320354,0.0],[172.7402279370001,-43.83095460299995,0.0],[172.73939938500007,-43.83050279899993,0.0],[172.73773329100004,-43.832902055999966,0.0],[172.73357670400003,-43.835291187999985,0.0],[172.73274924700002,-43.83544228799997,0.0],[172.73192137400008,-43.83483739999997,0.0],[172.73089041700007,-43.833188072999974,0.0],[172.7288212640001,-43.832431880999934,0.0],[172.72806158600008,-43.831972475999976,0.0],[172.72758132800004,-43.831682039999976,0.0],[172.7273765120001,-43.830781627999954,0.0],[172.72945669800004,-43.82928342699995,0.0],[172.73008223400007,-43.828384891999974,0.0],[172.73029510800006,-43.82718390499997,0.0],[172.7302342580001,-43.827169357999935,0.0],[172.729674218,-43.827033994999965,0.0],[172.72697241800006,-43.82882769199995,0.0],[172.72406488700005,-43.829873935999956,0.0],[172.72199131900004,-43.82986909099998,0.0],[172.7211680150001,-43.829115602999934,0.0],[172.71726625700012,-43.82779947499995,0.0],[172.71084303700002,-43.82733555699997,0.0],[172.69393134200004,-43.82777987199995,0.0],[172.67085598000006,-43.82916469799994,0.0],[172.62912371700008,-43.83081053999996,0.0],[172.59884045,-43.83278447299995,0.0],[172.58931574300004,-43.833403627999985,0.0],[172.53966045100003,-43.839920474999985,0.0],[172.51225096300004,-43.84313820899996,0.0],[172.49042484100005,-43.84548086899997,0.0],[172.46698890000005,-43.84736950699994,0.0],[172.44148039900006,-43.84911576099995,0.0],[172.42678580200004,-43.85052993299996,0.0],[172.39795660200002,-43.853914302999954,0.0],[172.38096540300012,-43.856226669999955,0.0],[172.3775113480001,-43.85671732399993,0.0],[172.37556290100008,-43.857250947999944,0.0],[172.37328152600003,-43.85738716999998,0.0],[172.35375418400008,-43.860583539999936,0.0],[172.3406591690001,-43.86336322999995,0.0],[172.32487153300008,-43.86552736699997,0.0],[172.30357943,-43.870481680999944,0.0],[172.29970851200005,-43.87138197499996,0.0],[172.28701683100007,-43.87537487499998,0.0],[172.28472074600006,-43.87609703199996,0.0],[172.27263948600012,-43.88022535199997,0.0],[172.266117064,-43.88194755999996,0.0],[172.26597969300008,-43.881983584999944,0.0],[172.26431317100003,-43.882423048999954,0.0],[172.2526442310001,-43.88670043299993,0.0],[172.22847701400008,-43.89449913699997,0.0],[172.21973512700004,-43.89774390599996,0.0],[172.21534548900001,-43.899064555999985,0.0],[172.21493225900008,-43.89906180799994,0.0],[172.21369541700005,-43.89845486399997,0.0],[172.219529189,-43.89654110599997,0.0],[172.22245196100005,-43.89506204999998,0.0],[172.22411538400002,-43.89492014599995,0.0],[172.22787001900008,-43.893293565999954,0.0],[172.22621291500002,-43.89313400599997,0.0],[172.22204517000011,-43.89445633999998,0.0],[172.21726654600002,-43.894878748999986,0.0],[172.21228695872708,-43.897483124827794,0.0],[172.21117,-43.89594,0.0],[172.205281,-43.889539,0.0],[172.204455,-43.888936,0.0],[172.202899,-43.887622,0.0],[172.20056,-43.885859,0.0],[172.197975,-43.884668,0.0],[172.195481,-43.882805,0.0],[172.193245,-43.880756,0.0],[172.190645,-43.878428,0.0],[172.187187,-43.876101,0.0],[172.186393,-43.874454,0.0],[172.185052,-43.873506,0.0],[172.184812,-43.8726,0.0],[172.18186,-43.870352,0.0],[172.176007,-43.866691,0.0],[172.175915,-43.865232,0.0],[172.170806,-43.861099,0.0],[172.167309,-43.858909,0.0],[172.166162,-43.855895,0.0],[172.164731,-43.853955,0.0],[172.16187,-43.85119,0.0],[172.157866,-43.846836,0.0],[172.154492,-43.842864,0.0],[172.152204,-43.841807,0.0],[172.151662,-43.841092,0.0],[172.149588,-43.840797,0.0],[172.145977,-43.83972,0.0],[172.144172,-43.837015,0.0],[172.131854,-43.831205,0.0],[172.128614,-43.826875,0.0],[172.12605,-43.824524,0.0],[172.123744,-43.822606,0.0],[172.119221,-43.819598,0.0],[172.118078,-43.815122,0.0],[172.113816,-43.806753,0.0],[172.113234,-43.804427,0.0],[172.11157,-43.800911,0.0],[172.108078,-43.797419,0.0],[172.102728,-43.795177,0.0],[172.098424,-43.7904,0.0],[172.097389,-43.78826,0.0],[172.09404,-43.784278,0.0],[172.09125,-43.78334,0.0],[172.088311,-43.780083,0.0],[172.087529,-43.777277,0.0],[172.084391,-43.775068,0.0],[172.08351,-43.773716,0.0],[172.081524,-43.770498,0.0],[172.079073,-43.768146,0.0],[172.079049,-43.767094,0.0],[172.07732,-43.765824,0.0],[172.07474,-43.765313,0.0],[172.07036,-43.762082,0.0],[172.070573,-43.756623,0.0],[172.066389,-43.753831,0.0],[172.064092,-43.753023,0.0],[172.061678,-43.752282,0.0],[172.057982,-43.751664,0.0],[172.05399,-43.749804,0.0],[172.048561,-43.749246,0.0],[172.04765,-43.748098,0.0],[172.047452,-43.74678,0.0],[172.046582,-43.743827,0.0],[172.043915,-43.741173,0.0],[172.042068,-43.738791,0.0],[172.039858,-43.738096,0.0],[172.038066,-43.737997,0.0],[172.034338,-43.736645,0.0],[172.031702,-43.733488,0.0],[172.029613,-43.732653,0.0],[172.027366,-43.730313,0.0],[172.026759,-43.729639,0.0],[172.024052,-43.728868,0.0],[172.02287,-43.726994,0.0],[172.020821,-43.725933,0.0],[172.015848,-43.722176,0.0],[172.01259,-43.719243,0.0],[172.00727,-43.717218,0.0],[172.005297,-43.716888,0.0],[172.003023,-43.716413,0.0],[172.002315,-43.715617,0.0],[171.997927,-43.713171,0.0],[171.995304,-43.712072,0.0],[171.989591,-43.711966,0.0],[171.986229,-43.711604,0.0],[171.982746,-43.710802,0.0],[171.978344,-43.710959,0.0],[171.973312,-43.709113,0.0],[171.970539,-43.706886,0.0],[171.966493,-43.705276,0.0],[171.964085,-43.704005,0.0],[171.962559,-43.702928,0.0],[171.961496,-43.702607,0.0],[171.96045,-43.702694,0.0],[171.95894,-43.702862,0.0],[171.957927,-43.70245,0.0],[171.957335,-43.702119,0.0],[171.956266,-43.700806,0.0],[171.95526,-43.700087,0.0],[171.954114,-43.699728,0.0],[171.952811,-43.699362,0.0],[171.951215,-43.69921,0.0],[171.949774,-43.699041,0.0],[171.947938,-43.698522,0.0],[171.946848,-43.697828,0.0],[171.945316,-43.697233,0.0],[171.943992,-43.696408,0.0],[171.942729,-43.69584,0.0],[171.940854,-43.695432,0.0],[171.9391,-43.694483,0.0],[171.937237,-43.693636,0.0],[171.934202,-43.691692,0.0],[171.928522,-43.689603,0.0],[171.923228,-43.687669,0.0],[171.920831,-43.687005,0.0],[171.919118,-43.685928,0.0],[171.917403,-43.684583,0.0],[171.915559,-43.684252,0.0],[171.913607,-43.683124,0.0],[171.91246,-43.68287,0.0],[171.911757,-43.682805,0.0],[171.910891,-43.682183,0.0],[171.9096,-43.681515,0.0],[171.907388,-43.68101,0.0],[171.906818,-43.680649,0.0],[171.906834,-43.680204,0.0],[171.906542,-43.679734,0.0],[171.905129,-43.679018,0.0],[171.90423,-43.678427,0.0],[171.903759,-43.677759,0.0],[171.903417,-43.676866,0.0],[171.902795,-43.675799,0.0],[171.902376,-43.675063,0.0],[171.90206,-43.674851,0.0],[171.901005,-43.674635,0.0],[171.899992,-43.674294,0.0],[171.899066,-43.673954,0.0],[171.898066,-43.673365,0.0],[171.897147,-43.673536,0.0],[171.896272,-43.673116,0.0],[172.047956,-43.615975,0.0],[172.278669,-43.567238,0.0],[172.520892,-43.544828,0.0],[172.572997,-43.480535,0.0],[172.645825,-43.407831,0.0],[172.71291852461528,-43.410694413472505,0.0],[172.71290491800005,-43.41386749099996,0.0]]]]}}]}