{"type":"FeatureCollection","features":[{"type":"Feature","properties":{},"geometry":{"type":"MultiPolygon","coordinates":[[[[172.7291324435646,-43.26840423153285,0.0],[172.728759,-43.270478,0.0],[172.72839466779183,-43.27124257839883,0.0],[172.72791667900003,-43.27224495699994,0.0],[172.72723864357835,-43.27366673807298,0.0],[172.726686,-43.274825,0.0],[172.72647,-43.276773,0.0],[172.72587190764463,-43.277929215575874,0.0],[172.72522762100004,-43.27917354899995,0.0],[172.72379773500006,-43.279912612999965,0.0],[172.72313660070563,-43.28195311328237,0.0],[172.72297,-43.282467,0.0],[172.72261863320304,-43.28360936238532,0.0],[172.72255208800004,-43.28382565299995,0.0],[172.72242065842593,-43.28426821723781,0.0],[172.721391,-43.287735,0.0],[172.719616,-43.29371,0.0],[172.71942057937966,-43.294963291389486,0.0],[172.71919463500012,-43.296409696999945,0.0],[172.71759701857985,-43.30049044348569,0.0],[172.716494,-43.303307,0.0],[172.7159052452423,-43.307465253775234,0.0],[172.71585697400008,-43.30780598999996,0.0],[172.71565982900006,-43.30844352999998,0.0],[172.71522869763203,-43.30983765855211,0.0],[172.714605,-43.311853,0.0],[172.713761,-43.316203,0.0],[172.713329,-43.321004,0.0],[172.71229,-43.323549,0.0],[172.711749,-43.326057,0.0],[172.711449,-43.327449,0.0],[172.711117,-43.331187,0.0],[172.7110825703372,-43.33157720284511,0.0],[172.71106888000008,-43.33173126699995,0.0],[172.71058291200006,-43.33719959199993,0.0],[172.71017635478563,-43.338294814038704,0.0],[172.710089,-43.33853,0.0],[172.709748,-43.339448,0.0],[172.708903,-43.344698,0.0],[172.70892019173564,-43.34554223701885,0.0],[172.7090706670001,-43.35294778999997,0.0],[172.70777865500008,-43.36509595999996,0.0],[172.70834974700006,-43.366954851999935,0.0],[172.7087929800001,-43.368397485999935,0.0],[172.70879093452652,-43.3688231760238,0.0],[172.70876,-43.375206,0.0],[172.70875339471735,-43.376635383167695,0.0],[172.70874466600003,-43.378451534999954,0.0],[172.70955486100002,-43.38115394099998,0.0],[172.70994384200003,-43.38625402599996,0.0],[172.7097349692227,-43.38685603697241,0.0],[172.709114,-43.387602,0.0],[172.705816,-43.388795,0.0],[172.7058160932516,-43.38879513867949,0.0],[172.70581568600005,-43.38879528599995,0.0],[172.7068275150001,-43.39029980099997,0.0],[172.7068278088461,-43.39029971572469,0.0],[172.706828,-43.3903,0.0],[172.70683262669064,-43.390298317567044,0.0],[172.70683893800003,-43.390296485999954,0.0],[172.70835112710537,-43.390742129029135,0.0],[172.70992,-43.391205,0.0],[172.71062369820046,-43.39185041381845,0.0],[172.71074103700005,-43.39195813499998,0.0],[172.71135386000003,-43.39285985699996,0.0],[172.71140085600007,-43.39360587899995,0.0],[172.71202491600002,-43.403510352999945,0.0],[172.7121196170001,-43.40501307499994,0.0],[172.71288873096643,-43.40786394792985,0.0],[172.71293,-43.408017,0.0],[172.7129283211777,-43.40840984441566,0.0],[172.71290491800005,-43.41386749099996,0.0],[172.71349253000005,-43.42016960799998,0.0],[172.71430893700006,-43.42197189799998,0.0],[172.71409368800005,-43.423618472999976,0.0],[172.71402757870752,-43.42373848886629,0.0],[172.71368,-43.424369,0.0],[172.7139648444835,-43.42734511706531,0.0],[172.71426872100005,-43.43052262699996,0.0],[172.71444470300003,-43.436972234999985,0.0],[172.71525150700006,-43.440876135999986,0.0],[172.71523096526244,-43.445570033152464,0.0],[172.71522,-43.448017,0.0],[172.715216,-43.448977,0.0],[172.71536038850488,-43.44955585481683,0.0],[172.71577083400007,-43.451202498999976,0.0],[172.7159651932836,-43.45198218752182,0.0],[172.716226,-43.45303,0.0],[172.7164083155498,-43.454822922266246,0.0],[172.71642499100005,-43.45498721699994,0.0],[172.71662198900003,-43.45692801299998,0.0],[172.71662903890933,-43.45694480352398,0.0],[172.716857,-43.457489,0.0],[172.71927,-43.463235,0.0],[172.719863,-43.468637,0.0],[172.72111938607094,-43.47411602355776,0.0],[172.72148089600012,-43.47569309099998,0.0],[172.72201674688074,-43.47687321501108,0.0],[172.722708,-43.478396,0.0],[172.724326,-43.484701,0.0],[172.728614,-43.494162,0.0],[172.72882138113025,-43.49555520225319,0.0],[172.7292167270001,-43.49821346899995,0.0],[172.73288169400007,-43.50917132799998,0.0],[172.73338994203158,-43.512209324372414,0.0],[172.733481,-43.512754,0.0],[172.72413831751263,-43.52371062763718,0.0],[172.72291687400002,-43.524151883999934,0.0],[172.72250455086612,-43.525626526675204,0.0],[172.673422,-43.583183,0.0],[172.1770406,-43.6683752,0.0],[172.0960579,-43.6051612,0.0],[171.9169156,-43.4653314,0.0],[172.057071,-43.359728,0.0],[172.171372,-43.226058,0.0],[172.329422,-43.171227,0.0],[172.48066,-43.131748,0.0],[172.724411,-43.265795,0.0],[172.7292109369161,-43.26796797144141,0.0],[172.7291324435646,-43.26840423153285,0.0]]],[[[172.473433,-43.127756,0.0],[172.48442,-43.130763,0.0],[172.48066,-43.131748,0.0],[172.473433,-43.127756,0.0]]]]}}]}