{"type":"FeatureCollection","features":[{"type":"Feature","properties":{},"geometry":{"type":"MultiPolygon","coordinates":[[[[171.977757,-43.320297,0.0],[171.929297,-43.279365,0.0],[171.617682,-43.47558,0.0],[171.617176,-43.476924,0.0],[171.61727,-43.477833,0.0],[171.618018,-43.479183,0.0],[171.623205,-43.482195,0.0],[171.62508,-43.483672,0.0],[171.625228,-43.486066,0.0],[171.624406,-43.487491,0.0],[171.624393,-43.489718,0.0],[171.625656,-43.491432,0.0],[171.625607,-43.492805,0.0],[171.624736,-43.493684,0.0],[171.625483,-43.49538,0.0],[171.627231,-43.49654,0.0],[171.630439,-43.497078,0.0],[171.632562,-43.497967,0.0],[171.633891,-43.499496,0.0],[171.633888,-43.50025,0.0],[171.632509,-43.501509,0.0],[171.631638,-43.503342,0.0],[171.632043,-43.504207,0.0],[171.633625,-43.505065,0.0],[171.634816,-43.505287,0.0],[171.637196,-43.504922,0.0],[171.640585,-43.505499,0.0],[171.643758,-43.507276,0.0],[171.64444,-43.507965,0.0],[171.643572,-43.509593,0.0],[171.642008,-43.51123,0.0],[171.641625,-43.512077,0.0],[171.641548,-43.5129,0.0],[171.642594,-43.513301,0.0],[171.64606,-43.514041,0.0],[171.646383,-43.515084,0.0],[171.647935,-43.515491,0.0],[171.652064,-43.514934,0.0],[171.654228,-43.515064,0.0],[171.656324,-43.515509,0.0],[171.658244,-43.516028,0.0],[171.658478,-43.516317,0.0],[171.657744,-43.517114,0.0],[171.657822,-43.517806,0.0],[171.658107,-43.518037,0.0],[171.658827,-43.518749,0.0],[171.660332,-43.519955,0.0],[171.663043,-43.521496,0.0],[171.66562,-43.523404,0.0],[171.666223,-43.52581,0.0],[171.667859,-43.528006,0.0],[171.668984,-43.5296,0.0],[171.669605,-43.529924,0.0],[171.670673,-43.5297,0.0],[171.672553,-43.529751,0.0],[171.674941,-43.530785,0.0],[171.676368,-43.53217,0.0],[171.678021,-43.533508,0.0],[171.683868,-43.536576,0.0],[171.686411,-43.538338,0.0],[171.689179,-43.539,0.0],[171.690595,-43.538953,0.0],[171.694472,-43.538363,0.0],[171.696031,-43.538302,0.0],[171.70181,-43.538429,0.0],[171.704699,-43.537561,0.0],[171.706013,-43.537507,0.0],[171.70744,-43.538144,0.0],[171.70892,-43.538486,0.0],[171.714427,-43.539346,0.0],[171.719719,-43.541823,0.0],[171.726356,-43.546529,0.0],[171.727871,-43.548225,0.0],[171.729958,-43.549503,0.0],[171.733102,-43.552866,0.0],[171.73519,-43.557333,0.0],[171.739811,-43.561488,0.0],[171.741756,-43.562458,0.0],[171.74436,-43.564461,0.0],[171.745447,-43.565917,0.0],[171.74702,-43.566528,0.0],[171.748022,-43.567874,0.0],[171.748567,-43.568141,0.0],[171.750086,-43.569358,0.0],[171.752088,-43.570225,0.0],[171.754219,-43.571091,0.0],[171.755476,-43.572388,0.0],[171.756704,-43.57405,0.0],[171.757701,-43.574576,0.0],[171.758921,-43.574632,0.0],[171.760246,-43.574495,0.0],[171.760836,-43.574719,0.0],[171.762873,-43.575229,0.0],[171.764546,-43.576932,0.0],[171.767291,-43.577665,0.0],[171.770808,-43.579628,0.0],[171.77312,-43.581752,0.0],[171.773811,-43.583207,0.0],[171.77596,-43.584599,0.0],[171.776397,-43.58552,0.0],[171.776069,-43.587236,0.0],[171.778417,-43.590792,0.0],[171.780454,-43.592433,0.0],[171.781601,-43.592958,0.0],[171.783076,-43.593967,0.0],[171.784808,-43.594851,0.0],[171.787102,-43.596648,0.0],[171.787992,-43.596897,0.0],[171.79605,-43.59929,0.0],[171.797573,-43.600408,0.0],[171.798303,-43.602209,0.0],[171.799849,-43.604072,0.0],[171.800709,-43.604564,0.0],[171.801571,-43.606296,0.0],[171.802095,-43.608702,0.0],[171.803314,-43.610096,0.0],[171.803434,-43.610958,0.0],[171.805651,-43.613054,0.0],[171.807938,-43.614948,0.0],[171.809253,-43.616686,0.0],[171.810595,-43.617674,0.0],[171.813451,-43.618782,0.0],[171.815816,-43.620687,0.0],[171.815999,-43.621327,0.0],[171.816794,-43.621924,0.0],[171.817697,-43.622248,0.0],[171.818818,-43.622151,0.0],[171.81996,-43.622255,0.0],[171.821145,-43.623447,0.0],[171.823312,-43.623864,0.0],[171.823697,-43.625072,0.0],[171.825843,-43.626742,0.0],[171.828313,-43.62951,0.0],[171.829131,-43.629856,0.0],[171.830852,-43.63117,0.0],[171.831978,-43.631963,0.0],[171.833285,-43.633208,0.0],[171.833882,-43.633338,0.0],[171.834346,-43.633318,0.0],[171.835188,-43.633588,0.0],[171.836245,-43.634014,0.0],[171.837173,-43.634501,0.0],[171.837539,-43.635085,0.0],[171.838221,-43.635694,0.0],[171.838967,-43.635978,0.0],[171.839686,-43.63608,0.0],[171.840525,-43.636097,0.0],[171.841688,-43.636224,0.0],[171.842725,-43.636665,0.0],[171.843384,-43.637235,0.0],[171.843714,-43.637817,0.0],[171.843817,-43.638825,0.0],[171.84398,-43.639227,0.0],[171.844864,-43.639689,0.0],[171.845989,-43.641016,0.0],[171.846092,-43.641994,0.0],[171.845483,-43.643142,0.0],[171.845638,-43.643607,0.0],[171.846034,-43.643945,0.0],[171.846998,-43.64459,0.0],[171.847638,-43.645446,0.0],[171.848919,-43.645947,0.0],[171.850666,-43.646949,0.0],[171.851885,-43.647928,0.0],[171.852393,-43.648488,0.0],[171.853118,-43.649421,0.0],[171.853843,-43.649703,0.0],[171.854434,-43.650328,0.0],[171.854931,-43.651112,0.0],[171.855494,-43.651592,0.0],[171.856064,-43.651716,0.0],[171.857074,-43.652086,0.0],[171.858022,-43.652673,0.0],[171.858974,-43.653163,0.0],[171.86002,-43.65349,0.0],[171.860824,-43.653523,0.0],[171.862088,-43.653745,0.0],[171.863115,-43.654127,0.0],[171.86401,-43.654859,0.0],[171.864169,-43.655609,0.0],[171.864788,-43.656085,0.0],[171.865639,-43.656105,0.0],[171.866612,-43.656238,0.0],[171.867186,-43.656815,0.0],[171.867518,-43.657472,0.0],[171.867581,-43.657792,0.0],[171.867777,-43.657955,0.0],[171.869583,-43.658848,0.0],[171.870234,-43.659331,0.0],[171.870848,-43.659644,0.0],[171.871261,-43.659742,0.0],[171.87183,-43.659813,0.0],[171.872754,-43.659739,0.0],[171.873357,-43.659995,0.0],[171.873746,-43.660474,0.0],[171.874654,-43.660906,0.0],[171.875613,-43.661117,0.0],[171.876885,-43.661632,0.0],[171.877885,-43.662477,0.0],[171.878512,-43.6637,0.0],[171.879424,-43.664346,0.0],[171.880602,-43.664923,0.0],[171.880761,-43.665152,0.0],[171.881091,-43.665552,0.0],[171.882331,-43.666229,0.0],[171.882986,-43.666681,0.0],[171.883331,-43.66684,0.0],[171.884236,-43.666941,0.0],[171.884865,-43.666941,0.0],[171.885608,-43.667112,0.0],[171.886752,-43.66733,0.0],[171.887215,-43.667331,0.0],[171.887669,-43.667365,0.0],[171.888362,-43.667603,0.0],[171.889212,-43.667784,0.0],[171.889667,-43.66799,0.0],[171.890106,-43.668278,0.0],[171.890533,-43.668605,0.0],[171.890915,-43.669027,0.0],[171.891208,-43.669437,0.0],[171.891449,-43.669714,0.0],[171.892039,-43.670035,0.0],[171.892961,-43.670412,0.0],[171.893647,-43.670964,0.0],[171.893839,-43.671215,0.0],[171.894009,-43.671578,0.0],[171.894391,-43.672287,0.0],[171.896272,-43.673116,0.0],[172.047956,-43.615975,0.0],[172.278669,-43.567238,0.0],[172.521579,-43.544828,0.0],[172.298691,-43.487391,0.0],[172.11646,-43.420126,0.0],[171.977757,-43.320297,0.0]]]]}}]}